BRANDS SOLD,PRODUCT TYPES/ CATEGORIES,RETAILER TYPE,RETAILER_ID,RETAILER NAME,LOCATION NAME,ADDRESS,LAND MARK,CITY,DISTRICT,STATE/PROVINCE,ZIP/POSTAL CODE,COUNTRY,CONTACT PHONE,CONTACT PERSON,STORE SIZE,GEO COORDINATES,TIER LEVEL OF GOODS SOLD,URL,NUMBER OF STORES/BRANCHIES IN THE CHAIN,HQ ADDRESS,HOLDING COMPANY NAME,HOLDING COMPANY ADDRESS,HOLDINGS CONTACT,URL (HOLDING COMAPANY),MANUFACTURER / FACTORY,MANUFACTURER ADDRESS,MANUFACTURER CONTACT
MICROMAX,TV,Consumer Electronics,,,A.G. ELEC.,"MAIN MARKET, SEC-6, R K PURAM, DELHI",,,,,,India,919810299778,,,,,http://www.micromaxinfo.com/store-locator,,,,,,,,,
MICROMAX,TV,Consumer Electronics,,,A.P. Electronics,"shop no 2/2, sarai Khuldabad",,,,,,India,9415308401,,,,,http://www.micromaxinfo.com/store-locator,,,,,,,,,
MICROMAX,TV,Consumer Electronics,,,A.P. Sales,119 Hewet Road,,,,,,India,9839618792,,,,,http://www.micromaxinfo.com/store-locator,,,,,,,,,
MICROMAX,TV,Consumer Electronics,,,A.S. ENTERPRISES,"E-36 SHAHEEN BAGH ABUL FAZAL ENCLAVE-II,JAMIA NAGAR OKHLA",,,,,,India,919891474769,,,,,http://www.micromaxinfo.com/store-locator,,,,,,,,,
MICROMAX,TV,Consumer Electronics,,,A.V.ELECTRONICS,"A-1185/86,G.D.COLONY,MAYUR VIHAR PH.-3,DELHI-110096",,,,,,India,919873399327,,,,,http://www.micromaxinfo.com/store-locator,,,,,,,,,
MICROMAX,TV,Consumer Electronics,,,Aasma Electronics,"Near Hotel Delux Gulam Ishapur, Main Road - Bhadohi",,,,,,India,9305321670,,,,,http://www.micromaxinfo.com/store-locator,,,,,,,,,
MICROMAX,TV,Consumer Electronics,,,Abdulsalam Abdulkalam Agencies,"BHANDARI ROAD, JAUNPUR",,,,,,India,8574581662,,,,,http://www.micromaxinfo.com/store-locator,,,,,,,,,
MICROMAX,TV,Consumer Electronics,,,aditya electronics,"B-2/25, Sector-18, Rohini Delhi-110085",,,,,,India,9811005331,,,,,http://www.micromaxinfo.com/store-locator,,,,,,,,,
MICROMAX,TV,Consumer Electronics,,,Agarwal Electronics,Tamsa Marg,,,,,,India,9838585727,,,,,http://www.micromaxinfo.com/store-locator,,,,,,,,,
MICROMAX,TV,Consumer Electronics,,,AGGARWAL TELECOM & ELECTRONICS,"25 FEET ROAD, HANUMAN KUNJ, NEAR DAAL GODOWON, SANT NAGAR, BURARI, DELHI",,,,,,India,918826362420,,,,,http://www.micromaxinfo.com/store-locator,,,,,,,,,
MICROMAX,TV,Consumer Electronics,,,Airo Dynamics,"C2/88, Vibhuti Khand",,,,,,India,9415027268,,,,,http://www.micromaxinfo.com/store-locator,,,,,,,,,
MICROMAX,TV,Consumer Electronics,,,AJAY TRADING CO,"397/6, OLD RAILWAY ROAD, GURGAON",,,,,,India,9810341676,,,,,http://www.micromaxinfo.com/store-locator,,,,,,,,,
MICROMAX,TV,Consumer Electronics,,,AJAY TV CENTRE,MAIN MARKET nr bus station,,,,,,India,9648168587,,,,,http://www.micromaxinfo.com/store-locator,,,,,,,,,
MICROMAX,TV,Consumer Electronics,,,All New Techno Park,"No 222, NSC Bose Road,Perrys",,,,,,India,9940114488/04425391444,,,,,http://www.micromaxinfo.com/store-locator,,,,,,,,,
MICROMAX,TV,Consumer Electronics,,,ALLIED ELCTRONICS,H 140 A DILSHAD GARDEN DELHI 110095,,,,,,India,919971505151,,,,,http://www.micromaxinfo.com/store-locator,,,,,,,,,
MICROMAX,TV,Consumer Electronics,,,ALVI ENTERPRISES,MAULA GANJ,,,,,,India,+919935725515,,,,,http://www.micromaxinfo.com/store-locator,,,,,,,,,
MICROMAX,TV,Consumer Electronics,,,AMAN ELECTRONICS,"D-180,WEST VINOD NAGAR MAIN ROAD MANDAWALI DELHI-110092",,,,,,India,911122478949,,,,,http://www.micromaxinfo.com/store-locator,,,,,,,,,
MICROMAX,TV,Consumer Electronics,,,AMAN ELECTRONICS,"MAIN MARKET HASTSAL, VIKAS NAGAR, UTTAM NAGAR, DELHI",,,,,,India,9212313617,,,,,http://www.micromaxinfo.com/store-locator,,,,,,,,,
MICROMAX,TV,Consumer Electronics,,,AMAN VIDEO,Shop No.10,,,,,,India,+919628224555,,,,,http://www.micromaxinfo.com/store-locator,,,,,,,,,
MICROMAX,TV,Consumer Electronics,,,AMBIKA ELECTRONICS,"C-3/47, MAHAVIR ENCLACE, PALAM, DELHI",,,,,,India,9212151786,,,,,http://www.micromaxinfo.com/store-locator,,,,,,,,,
MICROMAX,TV,Consumer Electronics,,,ANIL ELECTRONICS,"MAIN MARKET, KAKROLA MORE, UTTAM NAGAR, DELHI",,,,,,India,9250057010,,,,,http://www.micromaxinfo.com/store-locator,,,,,,,,,
MICROMAX,TV,Consumer Electronics,,,ANIL ELECTRONICS,AURAIYA,,,,,,India,+918393884505,,,,,http://www.micromaxinfo.com/store-locator,,,,,,,,,
MICROMAX,TV,Consumer Electronics,,,ANIL ELECTRONICS,Babarpur,,,,,,India,+919897918221,,,,,http://www.micromaxinfo.com/store-locator,,,,,,,,,
MICROMAX,TV,Consumer Electronics,,,Anupam Trading Company,"Panch Batti, M.I. Road, Jaipur",,,,,,India,0141-2378913/0141-2371380/9829063507,,,,,http://www.micromaxinfo.com/store-locator,,,,,,,,,
MICROMAX,TV,Consumer Electronics,,,Apolo Radio,"Shop No.- 1933, Chowk - Ramnagar",,,,,,India,9919496366,,,,,http://www.micromaxinfo.com/store-locator,,,,,,,,,
MICROMAX,TV,Consumer Electronics,,,ARORA ELECTRONICS,"B-69,MAIN MARKET,BHAJAN PURA,DELHI-110053",,,,,,India,919810244728,,,,,http://www.micromaxinfo.com/store-locator,,,,,,,,,
MICROMAX,TV,Consumer Electronics,,,ASHISH ELECTRONICS MANESAR,"NH-8, MANESAR, HARYANA",,,,,,India,9873243146,,,,,http://www.micromaxinfo.com/store-locator,,,,,,,,,
MICROMAX,TV,Consumer Electronics,,,ASHISH ENTERPRISES,"MAIN BAZAR, FAROOKH NAGAR, HARYANA",,,,,,India,9813226778,,,,,http://www.micromaxinfo.com/store-locator,,,,,,,,,
MICROMAX,TV,Consumer Electronics,,,Ashok Enterprises,"U-202, Main Vikas Marg, Shakarpur",,,,,,India,9711090932,,,,,http://www.micromaxinfo.com/store-locator,,,,,,,,,
MICROMAX,TV,Consumer Electronics,,,Ashok Enterprises,"Shop No 30, Netaji Subhash Marg, Near Mcdonald, Daryaganj",,,,,,India,"011-43558113, 9711090932",,,,,http://www.micromaxinfo.com/store-locator,,,,,,,,,
MICROMAX,TV,Consumer Electronics,,,ASHOKA ELECTRONICS,TUKHMIR PUR NEAR BHAJAN PURA DELHI 110094,,,,,,India,919871642229,,,,,http://www.micromaxinfo.com/store-locator,,,,,,,,,
MICROMAX,TV,Consumer Electronics,,,ASHWANI ELECTRONICS,LALBANGLOW,,,,,,India,+919935588199,,,,,http://www.micromaxinfo.com/store-locator,,,,,,,,,
MICROMAX,TV,Consumer Electronics,,,ASHWANI T.V SALES,FAZALGANJ,,,,,,India,+919559189111,,,,,http://www.micromaxinfo.com/store-locator,,,,,,,,,
MICROMAX,TV,Consumer Electronics,,,Asma,"Shop No. - 3, 11434, Shakti Nagar, Main Road Near Shakti Nagar Chowk",,,,,,India,9891399299,,,,,http://www.micromaxinfo.com/store-locator,,,,,,,,,
MICROMAX,TV,Consumer Electronics,,,AYUSH ELECTRONICS,NEAR PURANI CHUNGI,,,,,,India,8542967292,,,,,http://www.micromaxinfo.com/store-locator,,,,,,,,,
MICROMAX,TV,Consumer Electronics,,,AYUSH ELECTRONICS,"22,23",,,,,,India,8542967292,,,,,http://www.micromaxinfo.com/store-locator,,,,,,,,,
MICROMAX,TV,Consumer Electronics,,,BABAJI TRADERS,"A 10/43 DAKSHINPURI EXT., DAKSHINPURI",,,,,,India,919560074586,,,,,http://www.micromaxinfo.com/store-locator,,,,,,,,,
MICROMAX,TV,Consumer Electronics,,,BAGGA ELECTRONICS,"MARKET NO-5, NIT, FARIDABAD",,,,,,India,9810391600,,,,,http://www.micromaxinfo.com/store-locator,,,,,,,,,
MICROMAX,TV,Consumer Electronics,,,BAHEL ELEC,GOVIND GANJ,,,,,,India,+917215832178,,,,,http://www.micromaxinfo.com/store-locator,,,,,,,,,
MICROMAX,TV,Consumer Electronics,,,Balaji Mobile & Electronic Shop,Badholi Road,,,,,,India,7398241001,,,,,http://www.micromaxinfo.com/store-locator,,,,,,,,,
MICROMAX,TV,Consumer Electronics,,,Bapu Enterprises,"ward no 10, Chakia Dist. Chandauli",,,,,,India,9935983403,,,,,http://www.micromaxinfo.com/store-locator,,,,,,,,,
MICROMAX,TV,Consumer Electronics,,,BATRA ELECTRONICS,KHUREJI KHAS DELHI,,,,,,India,919810489675,,,,,http://www.micromaxinfo.com/store-locator,,,,,,,,,
MICROMAX,TV,Consumer Electronics,,,BHADORIA ELECTRONICS,"ASTHAL MANDIR ROAD, SANGAM VIHAR, DELHI",,,,,,India,919599104020,,,,,http://www.micromaxinfo.com/store-locator,,,,,,,,,
MICROMAX,TV,Consumer Electronics,,,Bhajanlal Commercial,"E Mall, 6, C R Avenue, Shop 208",,,,,,India,9088808888,,,,,http://www.micromaxinfo.com/store-locator,,,,,,,,,
MICROMAX,TV,Consumer Electronics,,,BHARAT COMMUNICATION,"324/15, ARYA SAMAJ ROAD, JACOBPURA, GURGAON",,,,,,India,9818366333,,,,,http://www.micromaxinfo.com/store-locator,,,,,,,,,
MICROMAX,TV,Consumer Electronics,,,BHARAT REFRIGERATION,"MAIN BAZAR, REWARI",,,,,,India,9416346854,,,,,http://www.micromaxinfo.com/store-locator,,,,,,,,,
MICROMAX,TV,Consumer Electronics,,,BHOLE EMPORIUM,"GOPALPURA, SHAMSHABAD, AGRA",,,,,,India,+918410540010,,,,,http://www.micromaxinfo.com/store-locator,,,,,,,,,
MICROMAX,TV,Consumer Electronics,,,Bobby Electronics,"474/1, Daliganj Railway Crossing",,,,,,India,9935866140,,,,,http://www.micromaxinfo.com/store-locator,,,,,,,,,
MICROMAX,TV,Consumer Electronics,,,BUNTY ELECTRONICS,"RAWAT MARKET, GWALIOR ROAD, AGRA",,,,,,India,+919219238318,,,,,http://www.micromaxinfo.com/store-locator,,,,,,,,,
MICROMAX,TV,Consumer Electronics,,,Calcutta Electronics,Lalgunj Dist Azamgarh,,,,,,India,9919020211,,,,,http://www.micromaxinfo.com/store-locator,,,,,,,,,
MICROMAX,TV,Consumer Electronics,,,CHABRA ELEC,PUNJABI COLONY,,,,,,India,+919616595590,,,,,http://www.micromaxinfo.com/store-locator,,,,,,,,,
MICROMAX,TV,Consumer Electronics,,,CHAUDHARY ELECTRONICS,Chhibramau,,,,,,India,+919839926114,,,,,http://www.micromaxinfo.com/store-locator,,,,,,,,,
MICROMAX,TV,Consumer Electronics,,,CHAUDHRI GANGA EMPORIUM,"MAINPURI TIRAHA, SHIKOHABAD",,,,,,India,+918755786857,,,,,http://www.micromaxinfo.com/store-locator,,,,,,,,,
MICROMAX,TV,Consumer Electronics,,,CHAUHAN T.V CENTER,BHARTNA,,,,,,India,+919634064776,,,,,http://www.micromaxinfo.com/store-locator,,,,,,,,,
MICROMAX,TV,Consumer Electronics,,,CHETAN ELECTRONICS,"B-2/1 SUNDAY MARKET, PHASE-4 AYA NAGAR",,,,,,India,919560700066,,,,,http://www.micromaxinfo.com/store-locator,,,,,,,,,
MICROMAX,TV,Consumer Electronics,,,CHITRA ELECTRONICS,"SHOP NO. 25, JACOBPURA ROAD, GURGAON",,,,,,India,9911927405,,,,,http://www.micromaxinfo.com/store-locator,,,,,,,,,
MICROMAX,TV,Consumer Electronics,,,Chopra Shopee,"Khanna Colony, Gandhi Chowk, Opp Petrol Pump",,,,,,India,9354917053,,,,,http://www.micromaxinfo.com/store-locator,,,,,,,,,
MICROMAX,TV,Consumer Electronics,,,Custom Home,"E3/112, Shradha Complex, 10 No. Stop, Arera Colony, Near SBI Bank",,,,,,India,9893442209/9713140031,,,,,http://www.micromaxinfo.com/store-locator,,,,,,,,,
MICROMAX,TV,Consumer Electronics,,,Dargah Road,Bakshipura,,,,,,India,9838583702,,,,,http://www.micromaxinfo.com/store-locator,,,,,,,,,
MICROMAX,TV,Consumer Electronics,,,DAWAR ENTERPRISES,"E-48 LAJPAT NAGAR-II, CENTRAL MARKET",,,,,,India,919810718889,,,,,http://www.micromaxinfo.com/store-locator,,,,,,,,,
MICROMAX,TV,Consumer Electronics,,,DEEP ELECTRONICS,Tirwa,,,,,,India,+919415492921,,,,,http://www.micromaxinfo.com/store-locator,,,,,,,,,
MICROMAX,TV,Consumer Electronics,,,DEEP PARAS ELECTROVISION,SECTOR-10,,,,,,India,9971898100,,,,,http://www.micromaxinfo.com/store-locator,,,,,,,,,
MICROMAX,TV,Consumer Electronics,,,DEEPAK AGENCIES,"11797, St. no-6, Sat Nagar, Karol Bagh, Delhi-110005",,,,,,India,919313700222,,,,,http://www.micromaxinfo.com/store-locator,,,,,,,,,
MICROMAX,TV,Consumer Electronics,,,DEEPAK AGENCIES,BIRHANA ROAD,,,,,,India,+919839124400,,,,,http://www.micromaxinfo.com/store-locator,,,,,,,,,
MICROMAX,TV,Consumer Electronics,,,Deepti Electronics,"K-1248, mangol puri, opp sanjay gandhi hospital, delhi",,,,,,India,9650139889,,,,,http://www.micromaxinfo.com/store-locator,,,,,,,,,
MICROMAX,TV,Consumer Electronics,,,delhi trader's,Delhi trader's Afjalgarh,,,,,,India,9756234933,,,,,http://www.micromaxinfo.com/store-locator,,,,,,,,,
MICROMAX,TV,Consumer Electronics,,,Dena Electronics,Khadra Near Police station,,,,,,India,9235502976,,,,,http://www.micromaxinfo.com/store-locator,,,,,,,,,
MICROMAX,TV,Consumer Electronics,,,Diamond Electronics & Gift,"Firdaus Market,",,,,,,India,7607304168,,,,,http://www.micromaxinfo.com/store-locator,,,,,,,,,
MICROMAX,TV,Consumer Electronics,,,DURGA ELECTRONICS,Achhalda,,,,,,India,+919719337109,,,,,http://www.micromaxinfo.com/store-locator,,,,,,,,,
MICROMAX,TV,Consumer Electronics,,,ELECTROINC WORLD,"A-1/1, PATEL MARG, SANT NAGAR, BURARI, DELHI",,,,,,India,919213913241,,,,,http://www.micromaxinfo.com/store-locator,,,,,,,,,
MICROMAX,TV,Consumer Electronics,,,ELECTRONIC PALACE,main road,,,,,,India,9838224905,,,,,http://www.micromaxinfo.com/store-locator,,,,,,,,,
MICROMAX,TV,Consumer Electronics,,,Electronic World,shop no 1 first floor,,,,,,India,9839066547,,,,,http://www.micromaxinfo.com/store-locator,,,,,,,,,
MICROMAX,TV,Consumer Electronics,,,Electronics Planet,"AG-4, Shalimar Bagh, Delhi-110088",,,,,,India,919212071415,,,,,http://www.micromaxinfo.com/store-locator,,,,,,,,,
MICROMAX,TV,Consumer Electronics,,,Everest Electronics,Kotwali Road,,,,,,India,9936201869,,,,,http://www.micromaxinfo.com/store-locator,,,,,,,,,
MICROMAX,TV,Consumer Electronics,,,Extra Smile Store,"Durga Tower (Rameshwar Market), Kachhari Road, Hajipur, Vaishali",,,,,,India,8409882419,,,,,http://www.micromaxinfo.com/store-locator,,,,,,,,,
MICROMAX,TV,Consumer Electronics,,,Fairdeal Electronics,C - 62 GTB Nagar Kareli,,,,,,India,9415236308,,,,,http://www.micromaxinfo.com/store-locator,,,,,,,,,
MICROMAX,TV,Consumer Electronics,,,Fast Infomation Centre,"30A, Baghajatin Place, Baghajatin Railway Station",,,,,,India,7044080160,,,,,http://www.micromaxinfo.com/store-locator,,,,,,,,,
MICROMAX,TV,Consumer Electronics,,,FRIENDS ELECTRONICS,SABZI MANDI,,,,,,India,9918070377,,,,,http://www.micromaxinfo.com/store-locator,,,,,,,,,
MICROMAX,TV,Consumer Electronics,,,G S TRADING CO,"MAIN MARKET, SANGAM VIHAR, DELHI",,,,,,India,919899522989,,,,,http://www.micromaxinfo.com/store-locator,,,,,,,,,
MICROMAX,TV,Consumer Electronics,,,G.K.ENTERPRISES,"A-54,GALI NO.1,BHARAMPURI,DELHI-110053",,,,,,India,919818226218,,,,,http://www.micromaxinfo.com/store-locator,,,,,,,,,
MICROMAX,TV,Consumer Electronics,,,G.S ELECTROWORLDS,kidwai nagar,,,,,,India,+918808855551,,,,,http://www.micromaxinfo.com/store-locator,,,,,,,,,
MICROMAX,TV,Consumer Electronics,,,GOLDY ELECTRONICS,H.S.J.S MARKET,,,,,,India,"""+919839072526",,,,,http://www.micromaxinfo.com/store-locator,,,,,,,,,
MICROMAX,TV,Consumer Electronics,,,GOVIND PLAZA,ShIvaji Marg (Firozabad),,,,,,India,+919897894415,,,,,http://www.micromaxinfo.com/store-locator,,,,,,,,,
MICROMAX,TV,Consumer Electronics,,,GROVER ELECTRONICS PALACE,"E-20/28, SECTOR-3, ROHINI, DELHI",,,,,,India,919213969750,,,,,http://www.micromaxinfo.com/store-locator,,,,,,,,,
MICROMAX,TV,Consumer Electronics,,,GUPTA TELECOM & ELECTRONICS,I-16 MAIN ROAD SANGAM VIHAR,,,,,,India,919871246825,,,,,http://www.micromaxinfo.com/store-locator,,,,,,,,,
MICROMAX,TV,Consumer Electronics,,,GURUKRIPA ELECTRONICS,"Ajeet Nagar, Kheria Mod, Agra",,,,,,India,+919319210997,,,,,http://www.micromaxinfo.com/store-locator,,,,,,,,,
MICROMAX,TV,Consumer Electronics,,,Gurukripa Enterprises,"shop no. 3 , BN block, DDa market, Near Ever Bake &samsung smart cafe, Shalimar Bagh",,,,,,India,8130314444,,,,,http://www.micromaxinfo.com/store-locator,,,,,,,,,
MICROMAX,TV,Consumer Electronics,,,GURUNANK TRADERS,KHUTAR ROAD,,,,,,India,+919695613889,,,,,http://www.micromaxinfo.com/store-locator,,,,,,,,,
MICROMAX,TV,Consumer Electronics,,,H.K ELECTRONICS,"KOTLA CHUNGI, FIROZABAD",,,,,,India,+919412266551,,,,,http://www.micromaxinfo.com/store-locator,,,,,,,,,
MICROMAX,TV,Consumer Electronics,,,Hariom retails pvt ltd,"B2/6, ashok vihar phase-2, opp dominos pizza, delhi-110052",,,,,,India,9811671263,,,,,http://www.micromaxinfo.com/store-locator,,,,,,,,,
MICROMAX,TV,Consumer Electronics,,,Hariom retails pvt ltd,"K-44, lajpat nagar-II delhi",,,,,,India,9013490028,,,,,http://www.micromaxinfo.com/store-locator,,,,,,,,,
MICROMAX,TV,Consumer Electronics,,,Hariom retails pvt ltd,"172-175, aggarwal plaza, first floor M2K complex, delhi -110085",,,,,,India,9891530003,,,,,http://www.micromaxinfo.com/store-locator,,,,,,,,,
MICROMAX,TV,Consumer Electronics,,,HARYANA ELECTRONIC,"RAILWAY ROAD, REWARI",,,,,,India,9034444724,,,,,http://www.micromaxinfo.com/store-locator,,,,,,,,,
MICROMAX,TV,Consumer Electronics,,,hello gift,new hello gift near haridwar rode naziabad,,,,,,India,9837806400,,,,,http://www.micromaxinfo.com/store-locator,,,,,,,,,
MICROMAX,TV,Consumer Electronics,,,INDER ELECTRONICS,"J-1050, JAHANGIR PURI, DELHI",,,,,,India,919891880635,,,,,http://www.micromaxinfo.com/store-locator,,,,,,,,,
MICROMAX,TV,Consumer Electronics,,,INDIA ELECTRONIS,Kotla Road Firozabad,,,,,,India,+919927063842,,,,,http://www.micromaxinfo.com/store-locator,,,,,,,,,
MICROMAX,TV,Consumer Electronics,,,Infinity Mobiles,"No 121, Bricklin Road, Purasaiwalkam, Near Motcham Signal",,,,,,India,9789905252/044-42310299,,,,,http://www.micromaxinfo.com/store-locator,,,,,,,,,
MICROMAX,TV,Consumer Electronics,,,J C ELECTRONICS,100FT ROAD,,,,,,India,9891397961,,,,,http://www.micromaxinfo.com/store-locator,,,,,,,,,
MICROMAX,TV,Consumer Electronics,,,J. N.ELECTRONICS,COLLEGE ROAD,,,,,,India,9450232236,,,,,http://www.micromaxinfo.com/store-locator,,,,,,,,,
MICROMAX,TV,Consumer Electronics,,,JAI JWALA ELEC,TOWN HAAL,,,,,,India,+919415035442,,,,,http://www.micromaxinfo.com/store-locator,,,,,,,,,
MICROMAX,TV,Consumer Electronics,,,JAI MAA ELECTRONIC,SHOP NO-7,,,,,,India,9811106659,,,,,http://www.micromaxinfo.com/store-locator,,,,,,,,,
MICROMAX,TV,Consumer Electronics,,,JAIN ELECTRO WORLD,"C5/77 AND C5/82,NEW KONDLI,NEAR RUCHIKA PETROL PUMP,DELHI-110096",,,,,,India,919999567670,,,,,http://www.micromaxinfo.com/store-locator,,,,,,,,,
MICROMAX,TV,Consumer Electronics,,,JAIN ELECTRONICS,Kayamganj,,,,,,India,+919450102120,,,,,http://www.micromaxinfo.com/store-locator,,,,,,,,,
MICROMAX,TV,Consumer Electronics,,,Jain electronics Bijnor,Jain electronics civil line Bijnor,,,,,,India,9837118548,,,,,http://www.micromaxinfo.com/store-locator,,,,,,,,,
MICROMAX,TV,Consumer Electronics,,,Jaiswal Electronics,735/1 Old Katra,,,,,,India,9335150372,,,,,http://www.micromaxinfo.com/store-locator,,,,,,,,,
MICROMAX,TV,Consumer Electronics,,,JAISWAL TV PALACE,SUBA BAZAR,,,,,,India,9415850192,,,,,http://www.micromaxinfo.com/store-locator,,,,,,,,,
MICROMAX,TV,Consumer Electronics,,,JEEWAN ELECTRONICS,"P-37, WEST PATEL NAGAR, DELHI",,,,,,India,9810508904,,,,,http://www.micromaxinfo.com/store-locator,,,,,,,,,
MICROMAX,TV,Consumer Electronics,,,JHANKAR ELECTRONICS (SGM),SMG Nagar,,,,,,India,9971799778,,,,,http://www.micromaxinfo.com/store-locator,,,,,,,,,
MICROMAX,TV,Consumer Electronics,,,JINDAL ELECTRONICS,"SHOP NO.80,WELCOME SEELAMPUR,DELHI",,,,,,India,919560044798,,,,,http://www.micromaxinfo.com/store-locator,,,,,,,,,
MICROMAX,TV,Consumer Electronics,,,JINDAL ENTERPRISES,"B-5, MAHAVIR ENCLAVE, PALAM ROAD, DELHI",,,,,,India,9910900557,,,,,http://www.micromaxinfo.com/store-locator,,,,,,,,,
MICROMAX,TV,Consumer Electronics,,,JUNEJA ELECTRONICS,NEAR GUPTA HOTEL,,,,,,India,9212420246,,,,,http://www.micromaxinfo.com/store-locator,,,,,,,,,
MICROMAX,TV,Consumer Electronics,,,JUNEJA SALES PVT.LTD.,"K-4,MAIN MANGAL BAZAR ROAD,LAXMI NAGAR DELHI-110092",,,,,,India,919899311990,,,,,http://www.micromaxinfo.com/store-locator,,,,,,,,,
MICROMAX,TV,Consumer Electronics,,,KAKA ELECTRONICS,"B-17, Shiv Ram Park, Shani Bazar Rd., Nangloi, Delhi-41",,,,,,India,919811611001,,,,,http://www.micromaxinfo.com/store-locator,,,,,,,,,
MICROMAX,TV,Consumer Electronics,,,KALKAJI ELECTRONICS,Sarai,,,,,,India,9990620007,,,,,http://www.micromaxinfo.com/store-locator,,,,,,,,,
MICROMAX,TV,Consumer Electronics,,,KANCHAN DA ELECTRINCS & FURNITUR,PANKI,,,,,,India,+919415732800,,,,,http://www.micromaxinfo.com/store-locator,,,,,,,,,
MICROMAX,TV,Consumer Electronics,,,Kanha Trading co,"1549/110, Tri Nagar, Delhi-110035",,,,,,India,919811676191,,,,,http://www.micromaxinfo.com/store-locator,,,,,,,,,
MICROMAX,TV,Consumer Electronics,,,Karan Electronics,3 Gopal market,,,,,,India,9695738320,,,,,http://www.micromaxinfo.com/store-locator,,,,,,,,,
MICROMAX,TV,Consumer Electronics,,,KARmA ELECTRONICS,"C-461, DDA COLONY, KHYALA, DELHI",,,,,,India,9811137734,,,,,http://www.micromaxinfo.com/store-locator,,,,,,,,,
MICROMAX,TV,Consumer Electronics,,,KATARIA SALES CORP,"513/26,MAIN BAZAR,GANDHI NAGAR,DELHI-110031",,,,,,India,919810878675,,,,,http://www.micromaxinfo.com/store-locator,,,,,,,,,
MICROMAX,TV,Consumer Electronics,,,KAUSHIK ELECTRONICS,"F-212, PIPAL WALA ROAD, MOHAN GARDEN, UTTAM NAGAR, DELHI",,,,,,India,9999538077,,,,,http://www.micromaxinfo.com/store-locator,,,,,,,,,
MICROMAX,TV,Consumer Electronics,,,KAUSHIK TV CENTRE,VILL-TIGAON,,,,,,India,9811547041,,,,,http://www.micromaxinfo.com/store-locator,,,,,,,,,
MICROMAX,TV,Consumer Electronics,,,Kayaam Electronics,Behta Bazar,,,,,,India,9793545362,,,,,http://www.micromaxinfo.com/store-locator,,,,,,,,,
MICROMAX,TV,Consumer Electronics,,,KHANDELWAL ELECTRONICS,10/9 KHICHDI PUR NEAR MOTHER DAIRY DELHI,,,,,,India,919990963810,,,,,http://www.micromaxinfo.com/store-locator,,,,,,,,,
MICROMAX,TV,Consumer Electronics,,,KHANNA ELECTRONICS,"128 MAIN BUS STOP, DEVLI NEAR KHANPUR",,,,,,India,919818606655,,,,,http://www.micromaxinfo.com/store-locator,,,,,,,,,
MICROMAX,TV,Consumer Electronics,,,Khanna Radio Corporation,"20 MG Marg, Civil Lines",,,,,,India,9335128639,,,,,http://www.micromaxinfo.com/store-locator,,,,,,,,,
MICROMAX,TV,Consumer Electronics,,,Khannaji Electricals,"62, Johnstonganj",,,,,,India,9335667767,,,,,http://www.micromaxinfo.com/store-locator,,,,,,,,,
MICROMAX,TV,Consumer Electronics,,,KHWAJA ENTERPRISES,NEAR TAXI STAND,,,,,,India,9935538890,,,,,http://www.micromaxinfo.com/store-locator,,,,,,,,,
MICROMAX,TV,Consumer Electronics,,,KISSAN TRADING CO,RAILWAR ROAD REWARI,,,,,,India,9466883332,,,,,http://www.micromaxinfo.com/store-locator,,,,,,,,,
MICROMAX,TV,Consumer Electronics,,,Kohinoor Communications,purani bazaar,,,,,,India,9125236969,,,,,http://www.micromaxinfo.com/store-locator,,,,,,,,,
MICROMAX,TV,Consumer Electronics,,,KRISHNA ELECTRONICS,"SHOP NO.6,MAIN ROAD KHICHRI PUR,DELHI-110091",,,,,,India,919999432286,,,,,http://www.micromaxinfo.com/store-locator,,,,,,,,,
MICROMAX,TV,Consumer Electronics,,,KRISHNA ELECTRONICS,KALYANPUR,,,,,,India,+919838697789,,,,,http://www.micromaxinfo.com/store-locator,,,,,,,,,
MICROMAX,TV,Consumer Electronics,,,Kunal Enterprises,"F-36, Ground Floor, Milap Nagar, Uttam Nagar",,,,,,India,8285778866,,,,,http://www.micromaxinfo.com/store-locator,,,,,,,,,
MICROMAX,TV,Consumer Electronics,,,KUSHWAHA ELECTRONICS,PADRAUNA ROAD,,,,,,India,9415028299,,,,,http://www.micromaxinfo.com/store-locator,,,,,,,,,
MICROMAX,TV,Consumer Electronics,,,KUSHWAHA RADIO CORPORATION,NEAR BUS STATION,,,,,,India,73989055555,,,,,http://www.micromaxinfo.com/store-locator,,,,,,,,,
MICROMAX,TV,Consumer Electronics,,,LAMBA ELECTRONICS,"K-140, MAIN MARKET, KALKAJI, DELHI",,,,,,India,919811005614,,,,,http://www.micromaxinfo.com/store-locator,,,,,,,,,
MICROMAX,TV,Consumer Electronics,,,M K electronics & refrigeration,"7679, Clock Tower, Kamla Nagar, Nr. Amba Cinema, Delhi-110007",,,,,,India,9560572478,,,,,http://www.micromaxinfo.com/store-locator,,,,,,,,,
MICROMAX,TV,Consumer Electronics,,,M T SONS,"WZ-444B, RAJ NAGAR, PALAM COLONY, DELHI",,,,,,India,9312281331,,,,,http://www.micromaxinfo.com/store-locator,,,,,,,,,
MICROMAX,TV,Consumer Electronics,,,M.K. ENTERPRISES,"MAIN MARKET, MOTI BAGH-1, DELHI",,,,,,India,919910222117,,,,,http://www.micromaxinfo.com/store-locator,,,,,,,,,
MICROMAX,TV,Consumer Electronics,,,M.S. ELECTRONICS,"L-48 MAIN ROAD HARI KOTI ABUL FAZAL, ENCLAVE JAMIA NAGAR OKHLA",,,,,,India,919899274077,,,,,http://www.micromaxinfo.com/store-locator,,,,,,,,,
MICROMAX,TV,Consumer Electronics,,,M/S PREM ELECTRONICS,"RABARTAS GANJ, SONBHADRA",,,,,,India,9415288964,,,,,http://www.micromaxinfo.com/store-locator,,,,,,,,,
MICROMAX,TV,Consumer Electronics,,,M/S SARSWATI ELECTRONICS,KAILI ROAD CHANDAULI,,,,,,India,9415452680,,,,,http://www.micromaxinfo.com/store-locator,,,,,,,,,
MICROMAX,TV,Consumer Electronics,,,MAA BHAWANI ELEC,SADAR BAJAR,,,,,,India,+919026253171,,,,,http://www.micromaxinfo.com/store-locator,,,,,,,,,
MICROMAX,TV,Consumer Electronics,,,Maaz electronic,Maaz electronic near bus stand Raja ka tajpur,,,,,,India,9997775551,,,,,http://www.micromaxinfo.com/store-locator,,,,,,,,,
MICROMAX,TV,Consumer Electronics,,,Madhuvan Electronics,Chowk Bazar,,,,,,India,9935848556,,,,,http://www.micromaxinfo.com/store-locator,,,,,,,,,
MICROMAX,TV,Consumer Electronics,,,MAHADEV ELECTRONICS,"F-9/13A, DLF PHASE-1, GURGAON",,,,,,India,9312653662,,,,,http://www.micromaxinfo.com/store-locator,,,,,,,,,
MICROMAX,TV,Consumer Electronics,,,MAHARAJA FURNITURE,AURAIYA,,,,,,India,+919045804661,,,,,http://www.micromaxinfo.com/store-locator,,,,,,,,,
MICROMAX,TV,Consumer Electronics,,,Mahaveer Traders,55B,,,,,,India,+919935668843,,,,,http://www.micromaxinfo.com/store-locator,,,,,,,,,
MICROMAX,TV,Consumer Electronics,,,Mahendra Electronics and Electricals,Cinema Road - Obra Dist Sonebhadra,,,,,,India,9415264245,,,,,http://www.micromaxinfo.com/store-locator,,,,,,,,,
MICROMAX,TV,Consumer Electronics,,,MAHINDRA ELECTRONICS,"13/19 20-21 DAKSHINPURI, NEAR PETROL PUMP",,,,,,India,919891391559,,,,,http://www.micromaxinfo.com/store-locator,,,,,,,,,
MICROMAX,TV,Consumer Electronics,,,MAHINDRA ELECTRONICS & COMMUNICATION,"76, SUNDER COLONY",,,,,,India,9910973865,,,,,http://www.micromaxinfo.com/store-locator,,,,,,,,,
MICROMAX,TV,Consumer Electronics,,,Manas Trading Co,"Shop No 5, Nand Plaza, Garh Road, Meerut - 250004",,,,,,India,8006383494,,,,,http://www.micromaxinfo.com/store-locator,,,,,,,,,
MICROMAX,TV,Consumer Electronics,,,MANCHANDA ELECTRONICS,"22/231 M.B. ROAD MAIN MARKET, KHANPUR",,,,,,India,919654307503,,,,,http://www.micromaxinfo.com/store-locator,,,,,,,,,
MICROMAX,TV,Consumer Electronics,,,MEENAKSHI ELECTRONICS,VISHNU COLONY,,,,,,India,9899542188,,,,,http://www.micromaxinfo.com/store-locator,,,,,,,,,
MICROMAX,TV,Consumer Electronics,,,Meera's,"Shop No : 3, Ambedkar Parisar, Next to Indian coffee house, Opp. Board Office Square",,,,,,India,9111333443/8889777128,,,,,http://www.micromaxinfo.com/store-locator,,,,,,,,,
MICROMAX,TV,Consumer Electronics,,,MEET SALES,SHASTRI NAGAR,,,,,,India,+919044202213,,,,,http://www.micromaxinfo.com/store-locator,,,,,,,,,
MICROMAX,TV,Consumer Electronics,,,Mega E-Store,"B40, Kalakji, Main Road, Before 1st Round About",,,,,,India,8800517778,,,,,http://www.micromaxinfo.com/store-locator,,,,,,,,,
MICROMAX,TV,Consumer Electronics,,,Melody House,"94, Nehru Road",,,,,,India,9415610517,,,,,http://www.micromaxinfo.com/store-locator,,,,,,,,,
MICROMAX,TV,Consumer Electronics,,,MITTAL ELECTRONICS,"C-49, CHANKYA PALACE, PART-1, UTTAM NAGAR, DELHI",,,,,,India,9968008694,,,,,http://www.micromaxinfo.com/store-locator,,,,,,,,,
MICROMAX,TV,Consumer Electronics,,,MOHAN ELECTRONICS,"137/5/2, SANT NAGAR, BURARI, DELHI",,,,,,India,919990799773,,,,,http://www.micromaxinfo.com/store-locator,,,,,,,,,
MICROMAX,TV,Consumer Electronics,,,MOVIE ELECTRONICS,"25 FEETA ROAD,OPP.NOORI DAIRY,NEHRU VIHAR,DELHI-110094",,,,,,India,919818692750,,,,,http://www.micromaxinfo.com/store-locator,,,,,,,,,
MICROMAX,TV,Consumer Electronics,,,Music Time,464/550 Katra,,,,,,India,8957550064,,,,,http://www.micromaxinfo.com/store-locator,,,,,,,,,
MICROMAX,TV,Consumer Electronics,,,N K ELECTRONICS,"RZ-120, PRAJAPAT COLONY, INDIRA PARK, EAST UTTAM NAGAR, DELHI",,,,,,India,9210613179,,,,,http://www.micromaxinfo.com/store-locator,,,,,,,,,
MICROMAX,TV,Consumer Electronics,,,N V TRADERS,B2/394 HARSH VIHAR SAFED MANDIR ROAD DELHI 110093,,,,,,India,911122345351,,,,,http://www.micromaxinfo.com/store-locator,,,,,,,,,
MICROMAX,TV,Consumer Electronics,,,National Electronic Gallery,"SKP Market, Panday Bazar - Azamgarh",,,,,,India,9452870303,,,,,http://www.micromaxinfo.com/store-locator,,,,,,,,,
MICROMAX,TV,Consumer Electronics,,,National Electronics,"4-5-6, Shri Ram Bhawan, Ring Road Crossing",,,,,,India,8565046698,,,,,http://www.micromaxinfo.com/store-locator,,,,,,,,,
MICROMAX,TV,Consumer Electronics,,,National Gramophone Agency,"30 & 31 near ambedkar murti, aliganj road",,,,,,India,9838584822,,,,,http://www.micromaxinfo.com/store-locator,,,,,,,,,
MICROMAX,TV,Consumer Electronics,,,National Radio House,Chowk Bazar,,,,,,India,9838588378,,,,,http://www.micromaxinfo.com/store-locator,,,,,,,,,
MICROMAX,TV,Consumer Electronics,,,NAVNEET ELEC,MOHAMDI,,,,,,India,+919936907227,,,,,http://www.micromaxinfo.com/store-locator,,,,,,,,,
MICROMAX,TV,Consumer Electronics,,,Navrang Audio Video,"shop no-21-22, Harlal market, Naharpur village, Sec-7, Rohini, Delhi-110085",,,,,,India,9911028472,,,,,http://www.micromaxinfo.com/store-locator,,,,,,,,,
MICROMAX,TV,Consumer Electronics,,,NCR Gadgets Store Pvt. Ltd.,"268, 2nd Floor GIP Mall, The Great India Place",,,,,,India,8800517779/8800490894,,,,,http://www.micromaxinfo.com/store-locator,,,,,,,,,
MICROMAX,TV,Consumer Electronics,,,NEERAJ ELECTRONICS,"MATA WALI GALI, DUNDAHERA",,,,,,India,9871540453,,,,,http://www.micromaxinfo.com/store-locator,,,,,,,,,
MICROMAX,TV,Consumer Electronics,,,NEW ARORA ELECTRONICS,"RZ-1, MOHAN NAGAR, PALAM ROAD, SAGAR PUR,DELHI",,,,,,India,9811626565,,,,,http://www.micromaxinfo.com/store-locator,,,,,,,,,
MICROMAX,TV,Consumer Electronics,,,NEW DEEPAK ELECTRONICS,"PLOT NO.379, KUSHAK ROAD NO.2, SWAROOP NAGAR, DELHI",,,,,,India,918130159172,,,,,http://www.micromaxinfo.com/store-locator,,,,,,,,,
MICROMAX,TV,Consumer Electronics,,,NEW KHURANA ELECTRONICS,"MAIN MARKET, SANT GARH, TILAK NAGAR, DELHI",,,,,,India,9312266038,,,,,http://www.micromaxinfo.com/store-locator,,,,,,,,,
MICROMAX,TV,Consumer Electronics,,,NEW MANISH Electronics,NAWAB GANJ(Unnao),,,,,,India,+919838638467,,,,,http://www.micromaxinfo.com/store-locator,,,,,,,,,
MICROMAX,TV,Consumer Electronics,,,NEW S.K ELECTRONICS,JAJMAU,,,,,,India,+919918301219,,,,,http://www.micromaxinfo.com/store-locator,,,,,,,,,
MICROMAX,TV,Consumer Electronics,,,NEW SWAMI ELECTRONICS,veena mkt,,,,,,India,+919919810814,,,,,http://www.micromaxinfo.com/store-locator,,,,,,,,,
MICROMAX,TV,Consumer Electronics,,,NIGAM TV CENTRE,MAIN MARKET,,,,,,India,9506229590,,,,,http://www.micromaxinfo.com/store-locator,,,,,,,,,
MICROMAX,TV,Consumer Electronics,,,OM SAI ELECTRONICS,BARRA-4,,,,,,India,+919918441100,,,,,http://www.micromaxinfo.com/store-locator,,,,,,,,,
MICROMAX,TV,Consumer Electronics,,,ONE NESS CORPORATION,SHYAMNAGAR,,,,,,India,+917860221207,,,,,http://www.micromaxinfo.com/store-locator,,,,,,,,,
MICROMAX,TV,Consumer Electronics,,,P.K. ELECTRONICS,SHOP NO-73-74,,,,,,India,9891280487,,,,,http://www.micromaxinfo.com/store-locator,,,,,,,,,
MICROMAX,TV,Consumer Electronics,,,PARAS FURNITURE & ELECTRONICS,"Station Road, Tundla",,,,,,India,+919837082751,,,,,http://www.micromaxinfo.com/store-locator,,,,,,,,,
MICROMAX,TV,Consumer Electronics,,,PARASHAR ELECTRONICS (PALLA),PALLA,,,,,,India,9891001033,,,,,http://www.micromaxinfo.com/store-locator,,,,,,,,,
MICROMAX,TV,Consumer Electronics,,,Parth Enterprises,"Shop No 312, Old Court Road, Near Shiv Chowk, Model Town",,,,,,India,8901234565,,,,,http://www.micromaxinfo.com/store-locator,,,,,,,,,
MICROMAX,TV,Consumer Electronics,,,Parth Telecom,"7A/27, District Centre, Janakpuri, Opp. HDFC ATM",,,,,,India,011-42415171/8506879022,,,,,http://www.micromaxinfo.com/store-locator,,,,,,,,,
MICROMAX,TV,Consumer Electronics,,,Parth Telecom,"Plot No.-103, Palam Ext., Ramphal Chowk, Sec-7, Dwarka",,,,,,India,7827633428,,,,,http://www.micromaxinfo.com/store-locator,,,,,,,,,
MICROMAX,TV,Consumer Electronics,,,Parth Telecome,"Shop No - 1 , 27/1 Double Storey, Ashok Nagar, Jail Road, Near Tilak nagar metro station",,,,,,India,7827633428,,,,,http://www.micromaxinfo.com/store-locator,,,,,,,,,
MICROMAX,TV,Consumer Electronics,,,PAWAN ELECTRONICS,"D-62,ADARSH MARKET,NAURTH GHONDA,DELHI-110053",,,,,,India,919910630340,,,,,http://www.micromaxinfo.com/store-locator,,,,,,,,,
MICROMAX,TV,Consumer Electronics,,,POOJA ELECTRONICS,RETI KA PUL,,,,,,India,9415690831,,,,,http://www.micromaxinfo.com/store-locator,,,,,,,,,
MICROMAX,TV,Consumer Electronics,,,POOJA MARKETING,"POOTH KALAN, MANGOL PURI, DELHI",,,,,,India,919818699430,,,,,http://www.micromaxinfo.com/store-locator,,,,,,,,,
MICROMAX,TV,Consumer Electronics,,,PRABHAKER RADIO,Main Road Moth,,,,,,India,+919956231988,,,,,http://www.micromaxinfo.com/store-locator,,,,,,,,,
MICROMAX,TV,Consumer Electronics,,,PRAGATI ELECTRONICS,"K-211 VASANT KUNJ ROAD, MAHIPALPUR",,,,,,India,919999994252,,,,,http://www.micromaxinfo.com/store-locator,,,,,,,,,
MICROMAX,TV,Consumer Electronics,,,PRAGYA ELECTRONICS,MAIN MARKET,,,,,,India,9125598689,,,,,http://www.micromaxinfo.com/store-locator,,,,,,,,,
MICROMAX,TV,Consumer Electronics,,,PRAKASH COMMUNICATION,"Ward No. 15, Moh.Shangiyan, Karhal",,,,,,India,+9197599020203,,,,,http://www.micromaxinfo.com/store-locator,,,,,,,,,
MICROMAX,TV,Consumer Electronics,,,Prakash Electronics,Mohmdabad Gohna Dist Azamgarh,,,,,,India,8009011863,,,,,http://www.micromaxinfo.com/store-locator,,,,,,,,,
MICROMAX,TV,Consumer Electronics,,,Prakash Watch & Radio Co.,Shop no 1 Zila panchayat,,,,,,India,9450795624,,,,,http://www.micromaxinfo.com/store-locator,,,,,,,,,
MICROMAX,TV,Consumer Electronics,,,PRAMOD TRADING CO,"921, Clowk Tower, Subzi Mandi, Delhi-110007",,,,,,India,919899339200,,,,,http://www.micromaxinfo.com/store-locator,,,,,,,,,
MICROMAX,TV,Consumer Electronics,,,PREM ELECTRONICS,"B-51, JANKIPURI, UTTAM NAGAR, DELHI",,,,,,India,9899851267,,,,,http://www.micromaxinfo.com/store-locator,,,,,,,,,
MICROMAX,TV,Consumer Electronics,,,Prince Electronics,"Shop no-48/4, Najfgarh Rd., Nangloi, Delhi-41",,,,,,India,919810924642,,,,,http://www.micromaxinfo.com/store-locator,,,,,,,,,
MICROMAX,TV,Consumer Electronics,,,Priya Electronics,Hardoi Kanpur Road,,,,,,India,9839291883,,,,,http://www.micromaxinfo.com/store-locator,,,,,,,,,
MICROMAX,TV,Consumer Electronics,,,Purshottam Enterprises,"G1 & G2, Aggarwal City Plaza, M2K, Rohini",,,,,,India,9899666447,,,,,http://www.micromaxinfo.com/store-locator,,,,,,,,,
MICROMAX,TV,Consumer Electronics,,,PURWAR ELECTRONICS,MAHOBA,,,,,,India,+918115000777,,,,,http://www.micromaxinfo.com/store-locator,,,,,,,,,
MICROMAX,TV,Consumer Electronics,,,R K Distributors,New Market,,,,,,India,9450940008,,,,,http://www.micromaxinfo.com/store-locator,,,,,,,,,
MICROMAX,TV,Consumer Electronics,,,R.M.ELECTRONICS,Chowk station road - Ballia,,,,,,India,9838078479,,,,,http://www.micromaxinfo.com/store-locator,,,,,,,,,
MICROMAX,TV,Consumer Electronics,,,RADHA VALLABH TREDERS,OLD G.T ROAD,,,,,,India,9467211411,,,,,http://www.micromaxinfo.com/store-locator,,,,,,,,,
MICROMAX,TV,Consumer Electronics,,,RAHUL ELECTRONICS,BHARTNA,,,,,,India,+918534987000,,,,,http://www.micromaxinfo.com/store-locator,,,,,,,,,
MICROMAX,TV,Consumer Electronics,,,RAJ ELECTRONICS,MAIN MARKET,,,,,,India,9415670019,,,,,http://www.micromaxinfo.com/store-locator,,,,,,,,,
MICROMAX,TV,Consumer Electronics,,,Raj Electronics,"D-77, MALVIYA NAGAR, NEW DELHI",,,,,,India,8506091035,,,,,http://www.micromaxinfo.com/store-locator,,,,,,,,,
MICROMAX,TV,Consumer Electronics,,,Raj Electronics,"SHOP NO G-4&5, SECTOR-12, PANKAJ PLAZA, DWARKA, DELHI",,,,,,India,9899748175,,,,,http://www.micromaxinfo.com/store-locator,,,,,,,,,
MICROMAX,TV,Consumer Electronics,,,Raj Electronics,"SHOP NO. 1 DAV SCHOOL BUILDING, YUSUF SARAI, DELHI",,,,,,India,8506091030,,,,,http://www.micromaxinfo.com/store-locator,,,,,,,,,
MICROMAX,TV,Consumer Electronics,,,RAJ ELECTRONICS (KHERI ROAD),"SHOP NO-53, BHARAT COLONY",,,,,,India,9560826633,,,,,http://www.micromaxinfo.com/store-locator,,,,,,,,,
MICROMAX,TV,Consumer Electronics,,,RAJA ELECTRONICS,80 FEET ROAD,,,,,,India,+919935058955,,,,,http://www.micromaxinfo.com/store-locator,,,,,,,,,
MICROMAX,TV,Consumer Electronics,,,RAJA FURNITUR & ELECTRONICS,"PEHLA PUSTA,SONIA VIHAR DELHI-110094",,,,,,India,919312438054,,,,,http://www.micromaxinfo.com/store-locator,,,,,,,,,
MICROMAX,TV,Consumer Electronics,,,Rajan Electronics Co.,Balaganj Police Chowki,,,,,,India,9335027220,,,,,http://www.micromaxinfo.com/store-locator,,,,,,,,,
MICROMAX,TV,Consumer Electronics,,,RAJIV ELECTRONICS INDIA,"INDER PURI, J J COLONY, DELHI",,,,,,India,9212168931,,,,,http://www.micromaxinfo.com/store-locator,,,,,,,,,
MICROMAX,TV,Consumer Electronics,,,RAKESH ELECT & MOBILE CENTER,"RZ-80, GALI NO.5, MOHAN BLOCK, WEST SAGARPUR, DELHI",,,,,,India,9213887326,,,,,http://www.micromaxinfo.com/store-locator,,,,,,,,,
MICROMAX,TV,Consumer Electronics,,,Ram Chandra General Merchant,Station Road,,,,,,India,7376971095,,,,,http://www.micromaxinfo.com/store-locator,,,,,,,,,
MICROMAX,TV,Consumer Electronics,,,RAM LAL ELECTRONICS,"MAIN MARKET, DAKSHIN PURI, DELHI",,,,,,India,919899177375,,,,,http://www.micromaxinfo.com/store-locator,,,,,,,,,
MICROMAX,TV,Consumer Electronics,,,RAMESH ENTERPRISES,D-936 TIGRI,,,,,,India,919811155769,,,,,http://www.micromaxinfo.com/store-locator,,,,,,,,,
MICROMAX,TV,Consumer Electronics,,,RANA ELECTRONICS,"H-139, MAIN ROAD NEW SEELAM PUR DELHI 110031",,,,,,India,917428864696,,,,,http://www.micromaxinfo.com/store-locator,,,,,,,,,
MICROMAX,TV,Consumer Electronics,,,RANJANA AGENCIES,SHIVKATRA ROAD,,,,,,India,+919936484813,,,,,http://www.micromaxinfo.com/store-locator,,,,,,,,,
MICROMAX,TV,Consumer Electronics,,,Rao Enterprises,"Main Bus Stand, Pataudi Road, Farrukh Nagar, Manesar",,,,,,India,9812680205,,,,,http://www.micromaxinfo.com/store-locator,,,,,,,,,
MICROMAX,TV,Consumer Electronics,,,Ratan Electronics,Banthra Bazar,,,,,,India,9695506552,,,,,http://www.micromaxinfo.com/store-locator,,,,,,,,,
MICROMAX,TV,Consumer Electronics,,,RATTAN ENTERPRISES,"F-23 MAIN ROAD DAKSHIN PURI,",,,,,,India,919810130806,,,,,http://www.micromaxinfo.com/store-locator,,,,,,,,,
MICROMAX,TV,Consumer Electronics,,,Refrico,"118, Near Odeon Cinema, Cantourment Road",,,,,,India,9415014217,,,,,http://www.micromaxinfo.com/store-locator,,,,,,,,,
MICROMAX,TV,Consumer Electronics,,,RELIABLE DISTRIBUTOR,Kannauj,,,,,,India,+919839555594,,,,,http://www.micromaxinfo.com/store-locator,,,,,,,,,
MICROMAX,TV,Consumer Electronics,,,RG Cellulars Pvt. Ltd.,"54, Ballygunge Gardens, Beside Golpark Aminia",,,,,,India,9629314584,,,,,http://www.micromaxinfo.com/store-locator,,,,,,,,,
MICROMAX,TV,Consumer Electronics,,,RITU ENTERPRISES,"84-85 CENTRAL MARKET, DAKSHIN PURI",,,,,,India,919999997251,,,,,http://www.micromaxinfo.com/store-locator,,,,,,,,,
MICROMAX,TV,Consumer Electronics,,,RUBY ELECTRONICS,"SHOP NO. 1/363, LINK ROAD",,,,,,India,9810772276,,,,,http://www.micromaxinfo.com/store-locator,,,,,,,,,
MICROMAX,TV,Consumer Electronics,,,RUCHI ENTERPRISES,"PATAUDI CHOWK, GURGAON",,,,,,India,9811004546,,,,,http://www.micromaxinfo.com/store-locator,,,,,,,,,
MICROMAX,TV,Consumer Electronics,,,Rukmani Telemart,"Pocket-2,GF, Plot no-75, Block-B, Sector 17, Rohini.",,,,,,India,9899261410,,,,,http://www.micromaxinfo.com/store-locator,,,,,,,,,
MICROMAX,TV,Consumer Electronics,,,S P ELECTRONICS,"GALI NO 19, MAIN MARKET, SANT NAGAR, BURARI, DELHI",,,,,,India,919212718180,,,,,http://www.micromaxinfo.com/store-locator,,,,,,,,,
MICROMAX,TV,Consumer Electronics,,,S P Electronics,Awas Vikas Colony,,,,,,India,9919573188,,,,,http://www.micromaxinfo.com/store-locator,,,,,,,,,
MICROMAX,TV,Consumer Electronics,,,S S ELECTRONICS,"N-9, KIRTI NAGAR, DELHI",,,,,,India,9899292549,,,,,http://www.micromaxinfo.com/store-locator,,,,,,,,,
MICROMAX,TV,Consumer Electronics,,,SABHARWAL ELEC. & SALES,Market No-1,,,,,,India,9810424499,,,,,http://www.micromaxinfo.com/store-locator,,,,,,,,,
MICROMAX,TV,Consumer Electronics,,,SABHARWAL ELECTRONICS & CO.,"SHOP NO-1H/42, MARKET NO-1",,,,,,India,9818856000,,,,,http://www.micromaxinfo.com/store-locator,,,,,,,,,
MICROMAX,TV,Consumer Electronics,,,SAI COMPUTERS & MOBILE,"137/15/1, MAIN ROAD, SANT NAGAR, BURARI, DELHI",,,,,,India,919891501919,,,,,http://www.micromaxinfo.com/store-locator,,,,,,,,,
MICROMAX,TV,Consumer Electronics,,,SAMRAT ELECTRONICS,"JACOBPURA, OLD RAILWAY ROAD, GURGAON",,,,,,India,9873633624,,,,,http://www.micromaxinfo.com/store-locator,,,,,,,,,
MICROMAX,TV,Consumer Electronics,,,SANGITA RADIO,TILHAR,,,,,,India,+919236900021,,,,,http://www.micromaxinfo.com/store-locator,,,,,,,,,
MICROMAX,TV,Consumer Electronics,,,SANJAY ELECTRONICS,SHOP NO-25,,,,,,India,9818702703,,,,,http://www.micromaxinfo.com/store-locator,,,,,,,,,
MICROMAX,TV,Consumer Electronics,,,SANJAY ELECTRONICS,"12,BRIJPURI EXT.MAIN PARWANA ROAD,DELHI-110051",,,,,,India,919810042679,,,,,http://www.micromaxinfo.com/store-locator,,,,,,,,,
MICROMAX,TV,Consumer Electronics,,,SANJAY TRADERS,SHOP NO-2M-42,,,,,,India,9582124251,,,,,http://www.micromaxinfo.com/store-locator,,,,,,,,,
MICROMAX,TV,Consumer Electronics,,,SARGAM INDIA ELECT PVT LTD,Jahangirpuri --Block -B-1231,,,,,,India,9540409100,,,,,http://www.micromaxinfo.com/store-locator,,,,,,,,,
MICROMAX,TV,Consumer Electronics,,,SARGAM INDIA ELECT PVT LTD,"D-10, vikas marg, laxmi nagar, delhi-110092",,,,,,India,9810148449,,,,,http://www.micromaxinfo.com/store-locator,,,,,,,,,
MICROMAX,TV,Consumer Electronics,,,SARGAM INDIA ELECT PVT LTD,Yusaf sarai --50/3 Main mkt,,,,,,India,9718993697,,,,,http://www.micromaxinfo.com/store-locator,,,,,,,,,
MICROMAX,TV,Consumer Electronics,,,SARGAM INDIA ELECT PVT LTD,Kalka ji--- K-75,,,,,,India,9540409600,,,,,http://www.micromaxinfo.com/store-locator,,,,,,,,,
MICROMAX,TV,Consumer Electronics,,,SARGAM INDIA ELECT PVT LTD,Lajpat Nagar -3 - K-35,,,,,,India,9911035839,,,,,http://www.micromaxinfo.com/store-locator,,,,,,,,,
MICROMAX,TV,Consumer Electronics,,,SARGAM INDIA ELECT PVT LTD,"G-3, Raja House, Nehru Place",,,,,,India,9911090240,,,,,http://www.micromaxinfo.com/store-locator,,,,,,,,,
MICROMAX,TV,Consumer Electronics,,,SARGAM INDIA ELECT PVT LTD,Jail Road-- Hari Nagar GL -11,,,,,,India,9891705972,,,,,http://www.micromaxinfo.com/store-locator,,,,,,,,,
MICROMAX,TV,Consumer Electronics,,,SARGAM INDIA ELECT PVT LTD,Paschim Vihar--A3/183,,,,,,India,9911515207,,,,,http://www.micromaxinfo.com/store-locator,,,,,,,,,
MICROMAX,TV,Consumer Electronics,,,SARGAM INDIA ELECT PVT LTD,Vikas Puri ---WZ-44/2 outer ring road,,,,,,India,9953709033,,,,,http://www.micromaxinfo.com/store-locator,,,,,,,,,
MICROMAX,TV,Consumer Electronics,,,SARGAM INDIA ELECT PVT LTD,Uttam Nagar --A-27 Main Nazafgarh Road e,,,,,,India,8860628866,,,,,http://www.micromaxinfo.com/store-locator,,,,,,,,,
MICROMAX,TV,Consumer Electronics,,,SARGAM INDIA ELECT PVT LTD,Patel Nagar --- 47 South Patel Nagar,,,,,,India,9540409400,,,,,http://www.micromaxinfo.com/store-locator,,,,,,,,,
MICROMAX,TV,Consumer Electronics,,,SARGAM INDIA ELECT PVT LTD,KAROL BAGH : 51/2 DESH BANDHU GUPTA ROAD,,,,,,India,9891415207,,,,,http://www.micromaxinfo.com/store-locator,,,,,,,,,
MICROMAX,TV,Consumer Electronics,,,SARGAM INDIA ELECT PVT LTD,Paschim Puri : 133 Pocket -2 Paschim Puri,,,,,,India,9911226995,,,,,http://www.micromaxinfo.com/store-locator,,,,,,,,,
MICROMAX,TV,Consumer Electronics,,,SARGAM INDIA ELECT PVT LTD,"Rajouri Gardan --A-21 vishal Enclave ,",,,,,,India,9891415205,,,,,http://www.micromaxinfo.com/store-locator,,,,,,,,,
MICROMAX,TV,Consumer Electronics,,,SARGAM INDIA ELECT PVT LTD,"1B/6, Community centre , B-1 Block",,,,,,India,9999134855,,,,,http://www.micromaxinfo.com/store-locator,,,,,,,,,
MICROMAX,TV,Consumer Electronics,,,SARGAM INDIA ELECT PVT LTD,"D-75, Main Road, Malviya Nagar, Delhi-110017",,,,,,India,9868187883,,,,,http://www.micromaxinfo.com/store-locator,,,,,,,,,
MICROMAX,TV,Consumer Electronics,,,SARGAM INDIA ELECT PVT LTD,"Kanti Nagar Extn , ---A-1 Main Road",,,,,,India,7042496306,,,,,http://www.micromaxinfo.com/store-locator,,,,,,,,,
MICROMAX,TV,Consumer Electronics,,,SARGAM INDIA ELECT PVT LTD,Preet vihar �: C 52 Preet vihar new delhi 110092,,,,,,India,8506095411,,,,,http://www.micromaxinfo.com/store-locator,,,,,,,,,
MICROMAX,TV,Consumer Electronics,,,SARGAM INDIA ELECT PVT LTD,Pitampura -- Kohat Enclave,,,,,,India,9891727296,,,,,http://www.micromaxinfo.com/store-locator,,,,,,,,,
MICROMAX,TV,Consumer Electronics,,,SARGAM INDIA ELECT PVT LTD,Model Town ---B-8 Model Town-2,,,,,,India,9891415204,,,,,http://www.micromaxinfo.com/store-locator,,,,,,,,,
MICROMAX,TV,Consumer Electronics,,,SARGAM INDIA ELECT PVT LTD,"Tri Nagar--- 3774, Kanhiya Nagar",,,,,,India,9540409300,,,,,http://www.micromaxinfo.com/store-locator,,,,,,,,,
MICROMAX,TV,Consumer Electronics,,,SARGAM INDIA ELECT PVT LTD,Ashok Vihar -- C-2/1 Phase-2,,,,,,India,9718510614,,,,,http://www.micromaxinfo.com/store-locator,,,,,,,,,
MICROMAX,TV,Consumer Electronics,,,SARGAM INDIA ELECT PVT LTD,Rohini --B-1/35-36 rohini sec-17,,,,,,India,9718993694,,,,,http://www.micromaxinfo.com/store-locator,,,,,,,,,
MICROMAX,TV,Consumer Electronics,,,SARGAM INDIA ELECT PVT LTD,"Adarsh Nagar -- A-260 , Majlis Park",,,,,,India,9718993691 Manoj Ji - 9990049413,,,,,http://www.micromaxinfo.com/store-locator,,,,,,,,,
MICROMAX,TV,Consumer Electronics,,,SARGAM INDIA ELECT PVT LTD,"Narela --- 1981, Railway Road",,,,,,India,9891727295 -,,,,,http://www.micromaxinfo.com/store-locator,,,,,,,,,
MICROMAX,TV,Consumer Electronics,,,SARGAM INDIA ELECT PVT LTD,Jahangir Puri -- Block C-951,,,,,,India,9818317168,,,,,http://www.micromaxinfo.com/store-locator,,,,,,,,,
MICROMAX,TV,Consumer Electronics,,,SARGAM INDIA ELECT PVT LTD,"A1 Main Kanjhawla Road , Budh Vihar .",,,,,,India,9811821836,,,,,http://www.micromaxinfo.com/store-locator,,,,,,,,,
MICROMAX,TV,Consumer Electronics,,,SARGAM INDIA ELECT PVT LTD,INDRAPURAM : �PLOT NO. MLU4 C/GH3 VAIBHAV KHAND INDRA PURAM GHAZIABAD �UP,,,,,,India,8510085206,,,,,http://www.micromaxinfo.com/store-locator,,,,,,,,,
MICROMAX,TV,Consumer Electronics,,,SARGAM INDIA ELECT PVT LTD,Ghaziabad: E2nd/228 Nehru Nagar Ambedkar Road,,,,,,India,8506095402,,,,,http://www.micromaxinfo.com/store-locator,,,,,,,,,
MICROMAX,TV,Consumer Electronics,,,SARGAM INDIA ELECT PVT LTD,"Ludhiana : B-XIX-259/1, Opp.",,,,,,India,9855601761,,,,,http://www.micromaxinfo.com/store-locator,,,,,,,,,
MICROMAX,TV,Consumer Electronics,,,SARGAM INDIA ELECT PVT LTD,F-3 / 5 krishna nagar near khatri bank,,,,,,India,9999358514,,,,,http://www.micromaxinfo.com/store-locator,,,,,,,,,
MICROMAX,TV,Consumer Electronics,,,SARGAM INDIA ELECT PVT LTD,"H-143A, Dilshad Garden, Delhi-110095",,,,,,India,9810315045,,,,,http://www.micromaxinfo.com/store-locator,,,,,,,,,
MICROMAX,TV,Consumer Electronics,,,SARGAM INDIA ELECT PVT LTD,"shop no. D-9, Mohan singh Market, r k puram, sector-6, delhi-110022",,,,,,India,9873787972,,,,,http://www.micromaxinfo.com/store-locator,,,,,,,,,
MICROMAX,TV,Consumer Electronics,,,SARGAM INDIA ELECT PVT LTD,"D-79, LGF, Malviya Nagar, main market delhi- 110017",,,,,,India,9810300311,,,,,http://www.micromaxinfo.com/store-locator,,,,,,,,,
MICROMAX,TV,Consumer Electronics,,,SATGURU ELECTRONICS,M BLOCK KIDWANI NAGAR,,,,,,India,+919598999900,,,,,http://www.micromaxinfo.com/store-locator,,,,,,,,,
MICROMAX,TV,Consumer Electronics,,,Satnam Electronics,Chowk Ghantaghar,,,,,,India,9935429635,,,,,http://www.micromaxinfo.com/store-locator,,,,,,,,,
MICROMAX,TV,Consumer Electronics,,,Saviks Distributors,"F - 02,03, Phoenix Mall, Pilibhit byepass",,,,,,India,8756575757/8923470933/9837887451,,,,,http://www.micromaxinfo.com/store-locator,,,,,,,,,
MICROMAX,TV,Consumer Electronics,,,SHIV ELECTRONICS,"A-68/3, MANDIR MOHALLA, SAMAI PUR, DELHI",,,,,,India,919911115234,,,,,http://www.micromaxinfo.com/store-locator,,,,,,,,,
MICROMAX,TV,Consumer Electronics,,,SHIV ELECTRONICS,MALERANA ROAD,,,,,,India,9811120276,,,,,http://www.micromaxinfo.com/store-locator,,,,,,,,,
MICROMAX,TV,Consumer Electronics,,,SHIV TRADING CO,"D-21-22, Wazir Pur, J.J. Colony, Delhi-110052",,,,,,India,919868161324,,,,,http://www.micromaxinfo.com/store-locator,,,,,,,,,
MICROMAX,TV,Consumer Electronics,,,Shiva Telemart,631 Dr. Mukharji Nagar Main road,,,,,,India,9990165119,,,,,http://www.micromaxinfo.com/store-locator,,,,,,,,,
MICROMAX,TV,Consumer Electronics,,,Shivam Electronics,"Campwell Road,",,,,,,India,9335045823,,,,,http://www.micromaxinfo.com/store-locator,,,,,,,,,
MICROMAX,TV,Consumer Electronics,,,SHIVAM ENTERPRISES,"1080-A, SOM BAZAR CHOWK, NAJAFGARH, DELHI",,,,,,India,9811504119,,,,,http://www.micromaxinfo.com/store-locator,,,,,,,,,
MICROMAX,TV,Consumer Electronics,,,Shivay Electronics,"Azad Nagar, VIP Road, Kasimpur Patri,",,,,,,India,9839155005,,,,,http://www.micromaxinfo.com/store-locator,,,,,,,,,
MICROMAX,TV,Consumer Electronics,,,SHREE AMBA ELECTRONICS,"1, Main Mkt., Anand Nagar, InderLok Delhi-110035",,,,,,India,011-23658812,,,,,http://www.micromaxinfo.com/store-locator,,,,,,,,,
MICROMAX,TV,Consumer Electronics,,,SHREE BALA JI ELECTRONICS,"9/254,KHICHRI PUR,DELHI-110091",,,,,,India,919999181802,,,,,http://www.micromaxinfo.com/store-locator,,,,,,,,,
MICROMAX,TV,Consumer Electronics,,,SHREE BALAJI ELECTRONICS,"GALI NO.2, SHIVAJI PARK, KHANDSA ROAD, GURGAON",,,,,,India,8802007098,,,,,http://www.micromaxinfo.com/store-locator,,,,,,,,,
MICROMAX,TV,Consumer Electronics,,,SHREE NATRAJ FURNITURE HOUSE,"RAILWAY STATION CHOWLI, KOSLI",,,,,,India,9416349451,,,,,http://www.micromaxinfo.com/store-locator,,,,,,,,,
MICROMAX,TV,Consumer Electronics,,,SHRI BALA PRITAM ELECTRONICS,"WZ-34A, SHOP NO 3, MUKHERJI PARK, TILAK NAGAR, DELHI",,,,,,India,7428110445,,,,,http://www.micromaxinfo.com/store-locator,,,,,,,,,
MICROMAX,TV,Consumer Electronics,,,shri balaji associate,"old ranipure more, haridwar, Opposite bata showroom",,,,,,India,9897031342,,,,,http://www.micromaxinfo.com/store-locator,,,,,,,,,
MICROMAX,TV,Consumer Electronics,,,Shri Jagannath,Sri Jagannath Cellular Nilani comples Bidhan Road Siliguri,,,,,,India,9434007070,,,,,http://www.micromaxinfo.com/store-locator,,,,,,,,,
MICROMAX,TV,Consumer Electronics,,,SHRI VAISHNO ENTERPRISES,"Near Jain Dharamshala, Ghiror",,,,,,India,+918126730645,,,,,http://www.micromaxinfo.com/store-locator,,,,,,,,,
MICROMAX,TV,Consumer Electronics,,,Shubh Mobiles,"No 20/153, Arcot Road, Virugambakkam",,,,,,India,"044-42313003, 9840334746",,,,,http://www.micromaxinfo.com/store-locator,,,,,,,,,
MICROMAX,TV,Consumer Electronics,,,Shubham Refrigeration,"Laxmanpuri Colony Road, Badi Jugoli",,,,,,India,9335234699,,,,,http://www.micromaxinfo.com/store-locator,,,,,,,,,
MICROMAX,TV,Consumer Electronics,,,Shukrana Communication,"118/489, Chamanlal Market, Gumti No.5",,,,,,India,9389401050,,,,,http://www.micromaxinfo.com/store-locator,,,,,,,,,
MICROMAX,TV,Consumer Electronics,,,SIDDHARTH ELECTRONICS,MANDIR ROAD,,,,,,India,9935295520,,,,,http://www.micromaxinfo.com/store-locator,,,,,,,,,
MICROMAX,TV,Consumer Electronics,,,Sikri Enterprises,"D-1/A-1, Shop no-1, ground floor, Ratia marg, sangam vihar, new delhi",,,,,,India,9910326330,,,,,http://www.micromaxinfo.com/store-locator,,,,,,,,,
MICROMAX,TV,Consumer Electronics,,,Singh Electronics,Jubail Choraha,,,,,,India,9415183278,,,,,http://www.micromaxinfo.com/store-locator,,,,,,,,,
MICROMAX,TV,Consumer Electronics,,,SINGH TRADERS,HOOLAGANJ,,,,,,India,+919450336609,,,,,http://www.micromaxinfo.com/store-locator,,,,,,,,,
MICROMAX,TV,Consumer Electronics,,,SKY VISION,LAL BAG,,,,,,India,+917408434790,,,,,http://www.micromaxinfo.com/store-locator,,,,,,,,,
MICROMAX,TV,Consumer Electronics,,,SPARSH ELECTRONIC WORLD,SHOP NO-5WH/32,,,,,,India,9911415110,,,,,http://www.micromaxinfo.com/store-locator,,,,,,,,,
MICROMAX,TV,Consumer Electronics,,,SRI SAI SALES,O BLOCK GOVIND NAGAR,,,,,,India,+919889466088,,,,,http://www.micromaxinfo.com/store-locator,,,,,,,,,
MICROMAX,TV,Consumer Electronics,,,SS Retails,"S-31, 2nd Floor, D.B City Mall, M.P.Nagar",,,,,,India,0755-6644677,,,,,http://www.micromaxinfo.com/store-locator,,,,,,,,,
MICROMAX,TV,Consumer Electronics,,,STABILIZER GALLERY,"RAJPUR CHUNGI, AGRA",,,,,,India,+919368737374,,,,,http://www.micromaxinfo.com/store-locator,,,,,,,,,
MICROMAX,TV,Consumer Electronics,,,STANDARD RADIO,sadar bazar,,,,,,India,+919889818025,,,,,http://www.micromaxinfo.com/store-locator,,,,,,,,,
MICROMAX,TV,Consumer Electronics,,,Star Creators,"52C/59, Raja Building, S.N High Road, Opp. Junction Bus Stand",,,,,,India,9629314584,,,,,http://www.micromaxinfo.com/store-locator,,,,,,,,,
MICROMAX,TV,Consumer Electronics,,,Star Mobitel (Flagship Store),"G-26, South Ex., Part 1",,,,,,India,011-46111111/9871717171,,,,,http://www.micromaxinfo.com/store-locator,,,,,,,,,
MICROMAX,TV,Consumer Electronics,,,Star Telecom,"Shop no-15, Kishanganj Market, Delhi 110007",,,,,,India,7065785763/9868877989,,,,,http://www.micromaxinfo.com/store-locator,,,,,,,,,
MICROMAX,TV,Consumer Electronics,,,SUBH ELECTRONISC,UNNAO,,,,,,India,+919598881111,,,,,http://www.micromaxinfo.com/store-locator,,,,,,,,,
MICROMAX,TV,Consumer Electronics,,,Subham electronic,Subham electronic daali bazar Chandpur,,,,,,India,9412528315,,,,,http://www.micromaxinfo.com/store-locator,,,,,,,,,
MICROMAX,TV,Consumer Electronics,,,SUPER COOL,"DLEHI ROAD, VILLAGE BADHSHAHPUR, GURGAON",,,,,,India,9873682428,,,,,http://www.micromaxinfo.com/store-locator,,,,,,,,,
MICROMAX,TV,Consumer Electronics,,,SUPER ELECTRONICS,"324/15, MAIN ROAD, JACOB PURA, GURGAON",,,,,,India,9811116627,,,,,http://www.micromaxinfo.com/store-locator,,,,,,,,,
MICROMAX,TV,Consumer Electronics,,,Super Star Electronics,556/18,,,,,,India,9369264747,,,,,http://www.micromaxinfo.com/store-locator,,,,,,,,,
MICROMAX,TV,Consumer Electronics,,,SURAJ BUSINESS P LTD,"PALAM VIHAR, SHOP NO 21-22, GURGAON",,,,,,India,9891260999,,,,,http://www.micromaxinfo.com/store-locator,,,,,,,,,
MICROMAX,TV,Consumer Electronics,,,SURBHI ELECTRONICS,"SHOP.NO.25,D PARK,PANDAV NAGAR,MOTHER DAIRY,DELHI-110092",,,,,,India,919810539220,,,,,http://www.micromaxinfo.com/store-locator,,,,,,,,,
MICROMAX,TV,Consumer Electronics,,,SURYA ELECTRONIC SALES,"186/15, JACOBPURA, GURGAON",,,,,,India,9910125212,,,,,http://www.micromaxinfo.com/store-locator,,,,,,,,,
MICROMAX,TV,Consumer Electronics,,,T V PALACE,TEHSIL ROAD,,,,,,India,9936247717,,,,,http://www.micromaxinfo.com/store-locator,,,,,,,,,
MICROMAX,TV,Consumer Electronics,,,TALWAR ELECTRONICS,"C-55,100FT.ROAD,DURGA PURI CHOWK,SHAHDARA,DELHI-110093",,,,,,India,919810663537,,,,,http://www.micromaxinfo.com/store-locator,,,,,,,,,
MICROMAX,TV,Consumer Electronics,,,Taneja Trading Co,"J-1/134, J.J. Colony, Wazir pur, Delhi-110052",,,,,,India,919968226104,,,,,http://www.micromaxinfo.com/store-locator,,,,,,,,,
MICROMAX,TV,Consumer Electronics,,,TARA ELECTRONICS,"SHOP NO-1377, GURUDWARA ROAD,",,,,,,India,9582150152,,,,,http://www.micromaxinfo.com/store-locator,,,,,,,,,
MICROMAX,TV,Consumer Electronics,,,Tata Steel & Electronics,Tedi Bazar,,,,,,India,9919204933,,,,,http://www.micromaxinfo.com/store-locator,,,,,,,,,
MICROMAX,TV,Consumer Electronics,,,TECH SQUARE,Baldevplaza shop no 189 / 190,,,,,,India,9648938250,,,,,http://www.micromaxinfo.com/store-locator,,,,,,,,,
MICROMAX,TV,Consumer Electronics,,,TECHNOKING HOME APPLIANCES,"A-69,HARDEV PURI,DELHI-110093",,,,,,India,919312255337,,,,,http://www.micromaxinfo.com/store-locator,,,,,,,,,
MICROMAX,TV,Consumer Electronics,,,TELEVISION GIFT CENTRE,AURAIYA,,,,,,India,+918439360311,,,,,http://www.micromaxinfo.com/store-locator,,,,,,,,,
MICROMAX,TV,Consumer Electronics,,,The India Steel Furniture Works,"Dariyapatti,Azamgarh Road - Chiraiyakoot",,,,,,India,9415841623,,,,,http://www.micromaxinfo.com/store-locator,,,,,,,,,
MICROMAX,TV,Consumer Electronics,,,TIGER ELECTRONICS,KHAGHA,,,,,,India,+919648646209,,,,,http://www.micromaxinfo.com/store-locator,,,,,,,,,
MICROMAX,TV,Consumer Electronics,,,Tirupati Electronics,Opp Bank of India,,,,,,India,9794972015,,,,,http://www.micromaxinfo.com/store-locator,,,,,,,,,
MICROMAX,TV,Consumer Electronics,,,TRILOK & CO.,DHARAMSHALA bazaar,,,,,,India,9935151680,,,,,http://www.micromaxinfo.com/store-locator,,,,,,,,,
MICROMAX,TV,Consumer Electronics,,,TYAGI ELECTRONICS,B 63 NEAR RUBBER FACTORY DELHI 110053,,,,,,India,919811665292,,,,,http://www.micromaxinfo.com/store-locator,,,,,,,,,
MICROMAX,TV,Consumer Electronics,,,UNIQUE ENTERPRISES,"A-51/6, AALI EXTENSION, MATHURA ROAD, BADARPUR, DELHI",,,,,,India,919811193502,,,,,http://www.micromaxinfo.com/store-locator,,,,,,,,,
MICROMAX,TV,Consumer Electronics,,,UNIQUE SALES CORPORATION,B-5 AALI EXTENTION BADARPUR,,,,,,India,919899152800,,,,,http://www.micromaxinfo.com/store-locator,,,,,,,,,
MICROMAX,TV,Consumer Electronics,,,UNITED TRADERS,"SADAR BAZAR, AGRA",,,,,,India,+919997478555,,,,,http://www.micromaxinfo.com/store-locator,,,,,,,,,
MICROMAX,TV,Consumer Electronics,,,USHA ELECTRONICS,"RZ-42H, HARIJAN COLONY, SAGARPUR, DELHI",,,,,,India,9971807776,,,,,http://www.micromaxinfo.com/store-locator,,,,,,,,,
MICROMAX,TV,Consumer Electronics,,,V K ELECTRONICS,"MEETHA PUR, BADARPUR, DELHI",,,,,,India,919810636471,,,,,http://www.micromaxinfo.com/store-locator,,,,,,,,,
MICROMAX,TV,Consumer Electronics,,,V K ENTERPRISES,"RAM SINGH NETAJI MAIN MARKET, BADARPUR, DELHI",,,,,,India,919810225574,,,,,http://www.micromaxinfo.com/store-locator,,,,,,,,,
MICROMAX,TV,Consumer Electronics,,,VAID ELECTRONICS,"5G/1, MARKET NO-5",,,,,,India,9811020032,,,,,http://www.micromaxinfo.com/store-locator,,,,,,,,,
MICROMAX,TV,Consumer Electronics,,,Vaishnavi Electronics,"Para Road, Laxman Vihar, Near Railway Crossing,",,,,,,India,9919340037,,,,,http://www.micromaxinfo.com/store-locator,,,,,,,,,
MICROMAX,TV,Consumer Electronics,,,Vandana electronic,Vandana electronic railway station road seohara,,,,,,India,9634013055,,,,,http://www.micromaxinfo.com/store-locator,,,,,,,,,
MICROMAX,TV,Consumer Electronics,,,VANDANA ELECTRONICS,"OLD RAILWAY ROAD, KABIR BHAWAN CHOWK, GURGAON",,,,,,India,9911112215,,,,,http://www.micromaxinfo.com/store-locator,,,,,,,,,
MICROMAX,TV,Consumer Electronics,,,Venus Traders,"No. 7, United Colony, Redhills Road (Near Rettery Signal), Kolathur",,,,,,India,044-43869122/9841322271,,,,,http://www.micromaxinfo.com/store-locator,,,,,,,,,
MICROMAX,TV,Consumer Electronics,,,VERMA RADIO,AMBEDKER CHOWK,,,,,,India,9711559920,,,,,http://www.micromaxinfo.com/store-locator,,,,,,,,,
MICROMAX,TV,Consumer Electronics,,,VIJAY ELECTRONICS,"39 MASJID ROAD BHOGAL, JANGPURA",,,,,,India,919873759957,,,,,http://www.micromaxinfo.com/store-locator,,,,,,,,,
MICROMAX,TV,Consumer Electronics,,,Vijay Electronics,Hospital Road,,,,,,India,9721644555,,,,,http://www.micromaxinfo.com/store-locator,,,,,,,,,
MICROMAX,TV,Consumer Electronics,,,Warsi Electronics,Mungarabadshahpur Dist Jaunpur,,,,,,India,9918151686,,,,,http://www.micromaxinfo.com/store-locator,,,,,,,,,
MICROMAX,TV,Consumer Electronics,,,YASH ELECTRONICS,133 MAIN ROAD NEB SARAI,,,,,,India,919871932571,,,,,http://www.micromaxinfo.com/store-locator,,,,,,,,,
