[
  {
    "Merchant Name": "Merchant Name",
    "City": "City",
    "Pincode": "Pincode",
    "address": "Address Line 1\nAddress Line 2"
  },
  {
    "Merchant Name": "Reliance Digital",
    "City": "AGRA",
    "Pincode": "282002",
    "address": "8981 119 8 & 120 8ASHOK COSMOS MALLASHOK \nCOSMOS MALL SANJAY PLACE CHILLI INT ROAD"
  },
  {
    "Merchant Name": "Reliance Digital",
    "City": "AHMEDABAD",
    "Pincode": "380054",
    "address": "T P NO 01 FP NO 216ALPHA \nONE VASTRAPURLAKE"
  },
  {
    "Merchant Name": "Reliance Digital",
    "City": "AHMEDABAD",
    "Pincode": "380022",
    "address": "10 ACRE MALL NEARRAIPUR GATE NEWCOTTON MILL\n COMPOUND ARYA SAMAJ MANDIR RD MANINAGAR"
  },
  {
    "Merchant Name": "Reliance Digital",
    "City": "AHMEDABAD",
    "Pincode": "380054",
    "address": "4547 UPPER GRD FLRISCON MEGA MALL \nNEARRAJPATH CLUB S G ROAD"
  },
  {
    "Merchant Name": "Reliance Digital",
    "City": "AHMEDABAD",
    "Pincode": "380009",
    "address": "SHOP NO 4 5 6TURQUOISE \nCG"
  },
  {
    "Merchant Name": "Reliance Digital Express",
    "City": "AHMEDABAD",
    "Pincode": "380015",
    "address": "GJ SM AHM 064SHOP NO 9 GR \nFLRGULMOHAR PARK MALL SATELLITE ROAD"
  },
  {
    "Merchant Name": "Reliance Digital Express",
    "City": "AHMEDABAD",
    "Pincode": "380006",
    "address": "8672 GROUND FLOORPRERNA ARBOUR OPPSAMUDRA\n ANNEXE GIRISH COLDRINK CROSS ROAD OFF C G ROAD"
  },
  {
    "Merchant Name": "Reliance Digital",
    "City": "AJMER",
    "Pincode": "305001",
    "address": "8703 LGF CINE MALLNEAR ANA SAGAR LAKENEAR \nANA SAGAR LAKEVAISHALI NAGAR ROAD"
  },
  {
    "Merchant Name": "Reliance Digital",
    "City": "ALLAHABAD",
    "Pincode": "211002",
    "address": "PROPERTY NO 47 A 2SARDAR \nPATEL MARGCIVIL STATION"
  },
  {
    "Merchant Name": "Reliance Digital",
    "City": "ALWAR",
    "Pincode": "301001",
    "address": "LGF CROSS POINT MALLJAIL CIRCLE \nSHIVCOMPLEX"
  },
  {
    "Merchant Name": "Reliance Digital",
    "City": "AMRITSAR",
    "Pincode": "143001",
    "address": "MINI ANCHOR 1 WING A3RD FLOOR\n TRILLIUMMALL CIRCULAR ROAD"
  },
  {
    "Merchant Name": "Reliance Digital",
    "City": "AURANGABAD",
    "Pincode": "431001",
    "address": "IN FRONT OF RADHAKRUSHNA MANGALKARYALAY \nNR GAJANAN MAHARAJ TEMPLE GARKHEDA"
  },
  {
    "Merchant Name": "Reliance Digital",
    "City": "BANGALORE",
    "Pincode": "560084",
    "address": "4598 NO 18 80FT ROAD\n4TH BLOCKKORAMANGALA"
  },
  {
    "Merchant Name": "Reliance Digital",
    "City": "BANGALORE",
    "Pincode": "560092",
    "address": "RDRL CENTURY CORBELBANGALORE STORERELIANCEDIGITAL RETAIL LTD CENTURY C\nORBEL PLOT NO 11 SY NO 41 1 AND 42 2 SAHAKARNAGAR MAIN ROAD BYTARAYANPURA VILLAGE YELHANKA HOBLI BANGALORE NORTH TALUKA"
  },
  {
    "Merchant Name": "Reliance Digital",
    "City": "BANGALORE",
    "Pincode": "560018",
    "address": "RDRL 127 1 BULLTEMPLE ROAD BBMPWARD \nNO 49 KG NAGAR"
  },
  {
    "Merchant Name": "Reliance Digital",
    "City": "BANGALORE",
    "Pincode": "560038",
    "address": "INDIRA NAGARBANGALORE STORE1198 \n1199 EMPORIUM SALARPURIA INDIRA NAGAR"
  },
  {
    "Merchant Name": "Reliance Digital",
    "City": "BANGALORE",
    "Pincode": "560055",
    "address": "ORION MALL BRIGADEGATEWAY 26 \n180 FEET ROAD DR RAJKUMAR ROAD MALLESWARAM"
  },
  {
    "Merchant Name": "Reliance Digital",
    "City": "BANGALORE",
    "Pincode": "560086",
    "address": "ND ELITE NO 871 2NDSTAGE BNASAWESHWARNAGAR \nDR MODI HOSPITAL RD WOC RD"
  },
  {
    "Merchant Name": "Reliance Digital",
    "City": "BANGALORE",
    "Pincode": "560085",
    "address": "NO 14 PANCHAJANYAPLAZA 3RD PHASE 3RDSTAGE BANASHANKRI 100FT RING RD\n "
  },
  {
    "Merchant Name": "Reliance Digital",
    "City": "BANGALORE",
    "Pincode": "560040",
    "address": "8684 TTMC RAFFICMANAGEMENT \nTRANSITCENTRE VIJAYANAGAR"
  },
  {
    "Merchant Name": "Reliance Digital",
    "City": "BANGALORE",
    "Pincode": "560097",
    "address": "8707 RELIANCEDIGITAL PID NO 125446 3 1  MARS ENCLAVE  STUATED AT\n DODDABOMMASANDRA MAIN ROAD  VIDYARANYAPURA SUB ZONE  BYATARANYANPURA BBMP ZONE"
  },
  {
    "Merchant Name": "Reliance Digital",
    "City": "BANGALORE",
    "Pincode": "560098",
    "address": "8745 VASAVI ARCADE605 18TH MAIN ROADIDEAL \nHOMES SRI RAJARAJESHWARI NAGAR"
  },
  {
    "Merchant Name": "Reliance Digital",
    "City": "BANGALORE",
    "Pincode": "560037",
    "address": "8792 SURVEY NO 90 4ARRROYALEMUNNEKOLALU \nOUTER RING ROAD MARATHAHALLI"
  },
  {
    "Merchant Name": "Reliance Digital",
    "City": "BANGALORE",
    "Pincode": "560076",
    "address": "SITE NO 1 2 & 3SY NO 75B\n WINDSORHULIMAVU BANNERGHATTA ROAD"
  },
  {
    "Merchant Name": "Reliance Digital",
    "City": "BANGALORE",
    "Pincode": "560102",
    "address": "RDRL NO 17 T HSRLAYOUT \nSEC 3 NR TOVISION EXPRESS"
  },
  {
    "Merchant Name": "Reliance Digital",
    "City": "BANGALORE",
    "Pincode": "560052",
    "address": "MUNICIPAL NO 74PRESTIGE FEROZE 1STFLR \nSMAPANGI RAMASWAMY TEMPLE ROAD EARLIER CUNNINGHAM ROAD"
  },
  {
    "Merchant Name": "Reliance Digital",
    "City": "BANGALORE",
    "Pincode": "560003",
    "address": "RDRL MANTRI SQUAREMALL 4469 F 26 TI \n311ST FLR SAMPIGE ROAD"
  },
  {
    "Merchant Name": "Reliance Digital",
    "City": "BANGALORE",
    "Pincode": "560078",
    "address": "BADAMI HOUSE NO 917\n9TH CROSS JP NAGAR2ND PHASE"
  },
  {
    "Merchant Name": "Reliance Digital",
    "City": "BANGALORE",
    "Pincode": "560048",
    "address": "10 GF PHOENIX MARKETCITY PLOT NO 106 107\nWHITEFILELD ROAD OPP MAHADEVPURA CMC"
  },
  {
    "Merchant Name": "Reliance Digital",
    "City": "BANGALORE",
    "Pincode": "560043",
    "address": "RDRL KAMANHALLIBANGALORE STORERELIANCEDIGITAL RETAIL LTD 4034TH C S\n1ST BLOCK JALVAYU VIHAR HRBR LAYOUT KALYANNAGAR"
  },
  {
    "Merchant Name": "Reliance Digital",
    "City": "BANGALORE",
    "Pincode": "560038",
    "address": "RDRL NO 6 GOPALANSIGNATURE TOWER\nOLD MADRAS ROAD CV RAMAN NAGAR"
  },
  {
    "Merchant Name": "Reliance Digital Express",
    "City": "BANGALORE",
    "Pincode": "560066",
    "address": "SHOP NO G 30 31 NO75EPIP AREA NEXT \nTOSATYA SAI HOSPITAL WHITEFIELD"
  },
  {
    "Merchant Name": "Reliance Digital Express",
    "City": "BANGALORE",
    "Pincode": "560001",
    "address": "NO 87 ALMAS \nCENTREMG ROAD"
  },
  {
    "Merchant Name": "Reliance Digital Express",
    "City": "BANGALORE",
    "Pincode": "560011",
    "address": "NO 641 46TH CROSS11TH MAIN\n 5TH BLOCKJAYANAGAR"
  },
  {
    "Merchant Name": "Reliance Digital Express",
    "City": "BANGALORE",
    "Pincode": "560032",
    "address": "8705 NO 495 7TH MAINHMT\n LAYOUTGANGANAGAR R T NAGAR"
  },
  {
    "Merchant Name": "Reliance Digital Express",
    "City": "BANGALORE",
    "Pincode": "560076",
    "address": "8715 NO 8 BTM 2NDSTAGE 1ST\n PHASERASHTRAKAVI KUVEMPU NAGAR"
  },
  {
    "Merchant Name": "Reliance Digital Mini",
    "City": "BANGALORE",
    "Pincode": "560066",
    "address": "STORE CODE 7514PROPERTY NO 7 CMC NO7 5 5 WHITEFIELD MAIN ROAD WHITEFIELD CMC WARD NO 17\nWHITEFIELD"
  },
  {
    "Merchant Name": "Reliance Digital Mini",
    "City": "BANGALORE",
    "Pincode": "560062",
    "address": "STORE CODE 7515ANJANAPURA MAIN ROADOPP SOUDHAMINI KALYANA MANTAPA\n KONANAKUNTE"
  },
  {
    "Merchant Name": "Reliance Digital Mini",
    "City": "BANGALORE",
    "Pincode": "560050",
    "address": "STORE CODE 7522GF MUNICIPAL NO 5BRUHAT BANGALORE MAHANAGARA PALIKE PID NO 54 364 5 SRINIVASNAGAR 1ST PHASE IIIRD STAGE\nBANASHANKHARI"
  },
  {
    "Merchant Name": "Reliance Digital Mini",
    "City": "BANGALORE",
    "Pincode": "560085",
    "address": "7533 NO 32 100 FTRING ROAD BSK 3RDSTAGE 3RD\nPHASE"
  },
  {
    "Merchant Name": "Reliance Digital Mini",
    "City": "BANGALORE",
    "Pincode": "560096",
    "address": "7544 NO 7 6TH MAINROAD SRIKANTESHWARANAGAR SHANAKARANAGAR MAIN ROAD\n MAHALAKSHMI LAYOUT"
  },
  {
    "Merchant Name": "Reliance Digital Mini",
    "City": "BANGALORE",
    "Pincode": "560054",
    "address": "STORE CODE 8467DX MINI MATHIKEREBEHIND MS RAMAIAH COLLEGE BUS STOP 1ST STAGE\n HMT MAIN ROAD"
  },
  {
    "Merchant Name": "Reliance Digital",
    "City": "BAREILLY",
    "Pincode": "243002",
    "address": "UP SM BAR 051 F 4 5S14\n PHOENIX UNITEDMALL"
  },
  {
    "Merchant Name": "Reliance Digital",
    "City": "BARODA",
    "Pincode": "390002",
    "address": "PROCUBE COMPLEX\nOPP TVS SHOWROOMNIZAMPURA"
  },
  {
    "Merchant Name": "Reliance Digital",
    "City": "BHILAI",
    "Pincode": "490020",
    "address": "8726 SHOP NOS  G 0102 &03\n LGF OPP SURYAVIHAR JUNWANI"
  },
  {
    "Merchant Name": "Reliance Digital",
    "City": "BHIMAVARAM",
    "Pincode": "534201",
    "address": "RDRL COASTAL CASTLEBHEEMAVARAM STORERELIANCEDIGITAL RETAIL LTD 172 5 UNDLI ROAD BHIMAVARAM BHIMAVARAM \nWEST GODAVARI BHEEMAVARAM"
  },
  {
    "Merchant Name": "Reliance Digital",
    "City": "BHIWADI",
    "Pincode": "301019",
    "address": "SHOP NO FF 12 A TOFF 24 CAPITAL MALL\nPLOT NO 812 CP 4 RIICO"
  },
  {
    "Merchant Name": "Reliance Digital",
    "City": "BHOPAL",
    "Pincode": "462011",
    "address": "RDRL CITY MALLBHOPAL STORE SECONDFLOOR UNIT NO S 36 AND S 37 D B MALL M P NAGAR SANJAY NAGAR JAIL ROAD\nUNIT NO S 36 AND S 37 D B MALL M P NAGAR SANJAY NAGAR JAIL ROAD"
  },
  {
    "Merchant Name": "Reliance Digital Express",
    "City": "BHOPAL",
    "Pincode": "462042",
    "address": "8730LAND KHASRA NO162 GF &FF DRISHTIPLAZA\n SARVADHARAM COLONY KOLAR ROAD"
  },
  {
    "Merchant Name": "Reliance Digital",
    "City": "BHUBANESHWAR",
    "Pincode": "751002",
    "address": "RDRL PLOT NO 14731537\n KHATA NO 444KHARVELA NAGAR"
  },
  {
    "Merchant Name": "Reliance Digital",
    "City": "BILASPUR MP",
    "Pincode": "495001",
    "address": "RDRL 1ST FLRSHOP NO 21 22 & 23CITY MALL 36 MANGLA CHOWK MUNGELI ROAD MANGLA CHOWK\n MUNGELI ROAD MANGLA CHOWK"
  },
  {
    "Merchant Name": "Reliance Digital",
    "City": "BURDWAN",
    "Pincode": "713325",
    "address": "2ND FLR GALAXY MALLBURNPUR \nCHITRA MOREPS HIRAPUR DIST"
  },
  {
    "Merchant Name": "Reliance Digital",
    "City": "BURDWAN",
    "Pincode": "713101",
    "address": "FF CURZON RESIDENCYGTRD \nOPP CURZON GATE"
  },
  {
    "Merchant Name": "Reliance Digital",
    "City": "CALICUT",
    "Pincode": "673002",
    "address": "17 401 C1 SECOND FLR\nFOCUS MALL RAJAJI RDPUTHIYARA"
  },
  {
    "Merchant Name": "Reliance Digital",
    "City": "CHANDIGARH",
    "Pincode": "160002",
    "address": "PLOT NO 178 & 178 AIND & BUSINESS\n PARKELANTE MALL PHASE 1"
  },
  {
    "Merchant Name": "Reliance Digital",
    "City": "CHENNAI",
    "Pincode": "600042",
    "address": "LG 39 MARKET CITYVALACHERY RD\n INDIRAGANDHI NAGAR NR GNG CRICKET"
  },
  {
    "Merchant Name": "Reliance Digital",
    "City": "CHENNAI",
    "Pincode": "600010",
    "address": "24 AND2 4A SECONDCROSS STREET \nORMESROAD KILPAUK"
  },
  {
    "Merchant Name": "Reliance Digital",
    "City": "CHENNAI",
    "Pincode": "600117",
    "address": "MEDAVAKKAM MAIN ROADKILKATTALAI VILLAGET\nAMBARAM TALUK KANCHIPURAM"
  },
  {
    "Merchant Name": "Reliance Digital",
    "City": "CHENNAI",
    "Pincode": "600083",
    "address": "RDRL ASHOK PILLARCHENNAI RELIANCEDIGITAL RETAIL LTD \nDOOR NO 21 21 A FIRST AVENUE PLOT NO A 37 ASHOK NAGAR KODAMBAKKAM VILLAGE"
  },
  {
    "Merchant Name": "Reliance Digital",
    "City": "CHENNAI",
    "Pincode": "600017",
    "address": "NO 60 KUPPU ARCADEVENKAT NARYAN ROADT NAGAR \nLAND MARK NEAR INDIAN OIL PETROL BUNK"
  },
  {
    "Merchant Name": "Reliance Digital",
    "City": "CHENNAI",
    "Pincode": "600040",
    "address": "NO 34 3RD \nAVENUEANNA NAGAR E"
  },
  {
    "Merchant Name": "Reliance Digital",
    "City": "CHENNAI",
    "Pincode": "600041",
    "address": "RDRL THIRUVANMIYUR5379 NO 45 KANNAPANNAGAR \nMUTTUKADU RD EAST COAST RD"
  },
  {
    "Merchant Name": "Reliance Digital",
    "City": "CHENNAI",
    "Pincode": "600044",
    "address": "282 GST RD NRCHROMPET \nBUSTERMINAL CHROMPET"
  },
  {
    "Merchant Name": "Reliance Digital",
    "City": "CHENNAI",
    "Pincode": "600053",
    "address": "PLOT NO 41 & 42 1STFLR \nM T H RDAMBATTUR OT"
  },
  {
    "Merchant Name": "Reliance Digital",
    "City": "CHENNAI",
    "Pincode": "600002",
    "address": "NEW NO 47OLD NO 11 A1 11 A2M\nECO HOUSE ANNA SALAI"
  },
  {
    "Merchant Name": "Reliance Digital",
    "City": "CHENNAI",
    "Pincode": "600050",
    "address": "PLOT NO 3 PC 11MOGAPPAIR WESTNR\n MOGAPPAIR WEST BUS DEPOT"
  },
  {
    "Merchant Name": "Reliance Digital Express",
    "City": "CHENNAI",
    "Pincode": "600004",
    "address": "NO 89 DR RADHAKRISHNAN \nSALAIMYLAPORE"
  },
  {
    "Merchant Name": "Reliance Digital Express",
    "City": "CHENNAI",
    "Pincode": "600040",
    "address": "AB 12 IIND \nAVENUEANNA NAGAR"
  },
  {
    "Merchant Name": "Reliance Digital Express",
    "City": "CHENNAI",
    "Pincode": "600020",
    "address": "8680 PLOT NO 52FIRST  MAIN \nROADGANDHI NAGAR  ADYAR"
  },
  {
    "Merchant Name": "Reliance Digital Express",
    "City": "CHENNAI",
    "Pincode": "600008",
    "address": "8724D XPRESS SHOP NO4 GROUND & FIRST FLRSINDUR ETERNITY\n NEW DOOR NO 60 MONTIETH ROAD EGMORE VILLAGE"
  },
  {
    "Merchant Name": "Reliance Digital Mini",
    "City": "CHENNAI",
    "Pincode": "600017",
    "address": "7505 DX MINI NORTHUSMAN RD T NAGAROLD NO 20 NEW NO 39 \nNORTH USMAN ROAD T NAGAR"
  },
  {
    "Merchant Name": "Reliance Digital Mini",
    "City": "CHENNAI",
    "Pincode": "600016",
    "address": "7506  DX MINI PORURCHENNAI NO 51 7\nARCOT ROAD"
  },
  {
    "Merchant Name": "Reliance Digital Mini",
    "City": "CHENNAI",
    "Pincode": "600026",
    "address": "7509 100FT ROAD\nVADAPALANI"
  },
  {
    "Merchant Name": "Reliance Digital Mini",
    "City": "CHENNAI",
    "Pincode": "600108",
    "address": "7531 OLD NO33 NEARBROADWAY \nTHEATERBROADWAY"
  },
  {
    "Merchant Name": "Reliance Digital Mini",
    "City": "CHENNAI",
    "Pincode": "600040",
    "address": "7539 SHOP NO 4 25442009 03 08 2009 DOORNO 162 PLOT NO 995E 2ND \nAVENUE ANNA NAGAR"
  },
  {
    "Merchant Name": "Reliance Digital Mini",
    "City": "CHENNAI",
    "Pincode": "603210",
    "address": "7540 NO 884A 298 \nGSTROAD URAPPAKKAM"
  },
  {
    "Merchant Name": "Reliance Digital Mini",
    "City": "CHENNAI",
    "Pincode": "600028",
    "address": "7580 NO 81 1 GROUNDFLOOR \nR K MUTT ROADMANDAVELLI"
  },
  {
    "Merchant Name": "Reliance Digital Mini",
    "City": "CHENNAI",
    "Pincode": "600029",
    "address": "8462  GROUND FLOORKAMARAJ BHAVANOLD NO  327   328  NEW NO  571  \nPOONAMALLEE HIGH ROAD  AMINJIKARAI"
  },
  {
    "Merchant Name": "Reliance Digital Express",
    "City": "COCHIN",
    "Pincode": "682024",
    "address": "8754 2ND FLR OBERONMALL NH 47\n BYE PASSANCHUMANA EDAPPALY KOCHI"
  },
  {
    "Merchant Name": "Reliance Digital Mini",
    "City": "COCHIN",
    "Pincode": "683101",
    "address": "7682 URUMBATH BLDGNO 11 229PUMPJUNCTION \nRAILWAY STATION ROAD ALUVAALUVA"
  },
  {
    "Merchant Name": "Reliance Digital Mini",
    "City": "COCHIN",
    "Pincode": "680020",
    "address": "7688 MARIA BLDG NO37 71C1 \nS A ROADKADAVANTHRA"
  },
  {
    "Merchant Name": "Reliance Digital Mini",
    "City": "COCHIN",
    "Pincode": "683101",
    "address": "7765 HAYATH  BLDGNO VI 104 NEAR ARGOYALAYAM HOSPITAL\nBRIDGE ROAD ALUVA ALUVA"
  },
  {
    "Merchant Name": "Reliance Digital Mini",
    "City": "COCHIN",
    "Pincode": "683104",
    "address": "7767 MARIA PLAZABLDG NO III 286NH 47ROAD \nNEAR SOCIAL CHURCHKALAMASSERY"
  },
  {
    "Merchant Name": "Reliance Digital",
    "City": "COIMBATORE",
    "Pincode": "641004",
    "address": "FUN REPUBLICAVANASHI \nRDPEELAMEDU"
  },
  {
    "Merchant Name": "Reliance Digital",
    "City": "COIMBATORE",
    "Pincode": "641001",
    "address": "NO 61 71 BROOKEFIELDS PLAZA \nKRISHNASWAMYROAD"
  },
  {
    "Merchant Name": "Reliance Digital",
    "City": "CUTTACK",
    "Pincode": "753003",
    "address": "8976 RDRL COLLEGESQUARE UNIT NO 24PLOT\n NO 967 KHATA NO:758 190 THANA NO 3"
  },
  {
    "Merchant Name": "Reliance Digital",
    "City": "DHANBAD",
    "Pincode": "828127",
    "address": "3RD FLR SHOP NO 311OZONE \nGALLERIASARAIDHELLA"
  },
  {
    "Merchant Name": "Reliance Digital Mini",
    "City": "DOMBIVALI",
    "Pincode": "421201",
    "address": "SHOP NO 7 LAXMIANAND VILLA \nPHADKEROAD DOMBIVLI E"
  },
  {
    "Merchant Name": "Reliance Digital",
    "City": "DURGAPUR",
    "Pincode": "713213",
    "address": "FORTUNE PLAZA 1STFLR NACHAN \nRDBENACHITY BHIRINGI KALI BARI"
  },
  {
    "Merchant Name": "Reliance Digital",
    "City": "Eluru",
    "Pincode": "534002",
    "address": "8673 D NO 25 1 30SHOP NOS 201 208 301CENTRAL PLAZA \nRAMACHANDRA RAO PET ELURU WEST"
  },
  {
    "Merchant Name": "Reliance Digital",
    "City": "FARIDABAD",
    "Pincode": "121001",
    "address": "FUN CITY SHOPPINGMALL GF & FF \nPLOT NO02 SEC 20A"
  },
  {
    "Merchant Name": "Reliance Digital Mini",
    "City": "FARIDABAD",
    "Pincode": "121001",
    "address": "7563 S NO B437 NEHRUGROUND \nNEELAM BATAROAD NIT"
  },
  {
    "Merchant Name": "Reliance Digital",
    "City": "GHAZIABAD",
    "Pincode": "201010",
    "address": "SECOND FLOOR SF 230& 231 MAHAGUN METROMALL \nPLOT NO VC 3 SECTOR 3 VAISHALI"
  },
  {
    "Merchant Name": "Reliance Digital",
    "City": "GHAZIABAD",
    "Pincode": "201012",
    "address": "1ST FLR SHIPRA \nMALLINDIRAPURAM"
  },
  {
    "Merchant Name": "Reliance Digital Express",
    "City": "GHAZIABAD",
    "Pincode": "201010",
    "address": "SHOP NO G 7 & G 8 ATPACIFIC MALL KOSHMBIA \nSITE NO 4 SAHIBABAD IND AREA PLOT NO 1 DR BURMAN RD"
  },
  {
    "Merchant Name": "Reliance Digital Express",
    "City": "GHAZIABAD",
    "Pincode": "201001",
    "address": "C 29 RDC \nRAJNAGARDST CENTRE"
  },
  {
    "Merchant Name": "Reliance Digital Express",
    "City": "GHAZIABAD",
    "Pincode": "201001",
    "address": "8708 FIRST FLOOR 115OPULENT \nMALL GT ROAD"
  },
  {
    "Merchant Name": "Reliance Digital Mini",
    "City": "GHAZIABAD",
    "Pincode": "201010",
    "address": "8789 SHOP NUMBER 8UGF AMARPALI ROYALVAIBHAVKAND\n INDIRAPURAM"
  },
  {
    "Merchant Name": "Reliance Digital",
    "City": "GODAVARI",
    "Pincode": "533001",
    "address": "8727 D NO13 5 2 FFRAMASOMAYJULU \nSTREETSURAYRAO PETA KAKINADA EAST"
  },
  {
    "Merchant Name": "Reliance Digital",
    "City": "GULBARGA",
    "Pincode": "585102",
    "address": "NO 1000 CTS NO 922 3ASIAN MALLBEHIND \nKBN HOSPITAL GATE NO 2 ELECTRONIC CITY PHASE 1"
  },
  {
    "Merchant Name": "Reliance Digital",
    "City": "GURGAON",
    "Pincode": "122017",
    "address": "GFA 02G 15 G 16 UGA02 UG 16B \nUG 11 16ANSAL PLAZA PALAM VIHAR"
  },
  {
    "Merchant Name": "Reliance Digital",
    "City": "GURGAON",
    "Pincode": "122001",
    "address": "AMBI MALL 218 2NDFLOOR AMBIANCE MALLNH 8 \nNATHUPUR VILLAGE RAJOKRI BORDER"
  },
  {
    "Merchant Name": "Reliance Digital",
    "City": "GURGAON",
    "Pincode": "121103",
    "address": "UG 21 A TO 27 B FF21 TO 27 \nRAHEJA MALLSEC 47 SOHNA RD"
  },
  {
    "Merchant Name": "Reliance Digital Express",
    "City": "GURGAON",
    "Pincode": "122001",
    "address": "8664 DIGITAL XPRESSHUDA MARKET GURGAONBF & \nGF SCO 23 HUDA MARKET SEC 14"
  },
  {
    "Merchant Name": "Reliance Digital Mini",
    "City": "GURGAON",
    "Pincode": "122001",
    "address": "7534 SOUTH  CITYARCADE SECTOR 30\nGurgaon"
  },
  {
    "Merchant Name": "Reliance Digital Mini",
    "City": "GURGAON",
    "Pincode": "122001",
    "address": "7564 NM 15 \nOLD DLFCOLONY"
  },
  {
    "Merchant Name": "Reliance Digital",
    "City": "HOWRAH",
    "Pincode": "711102",
    "address": "RDML AVNI RIVER SIDEMALL RELIANCEDIGITALRETAIL LIMITED AVANI RIVERSIDE \n32 JAGAT BANERJEE GHAT ROAD SHALKIA"
  },
  {
    "Merchant Name": "Reliance Digital Mini",
    "City": "HOWRAH",
    "Pincode": "711102",
    "address": "7517 493 CA GT ROADAÂ VIVEKAÂ VIHARAPPARTMENT BLOCK A SHOP 2 PHASE I \nSHIBPUR HOWRAH"
  },
  {
    "Merchant Name": "Reliance Digital",
    "City": "HUBLI",
    "Pincode": "580021",
    "address": "KALBURGI CENTRALOPP VIDYA NAGAR\nPOLICE STATION P B ROAD VIDYA NAGAR"
  },
  {
    "Merchant Name": "Reliance Digital Express",
    "City": "HUBLI",
    "Pincode": "580020",
    "address": "8733 U MALL  2ND FLROPP\n SHOPPERS SHOPHUBLI"
  },
  {
    "Merchant Name": "Reliance Digital",
    "City": "HYDERABAD",
    "Pincode": "500060",
    "address": "MUNICIPAL NO 11 9123 SAROORNAGARVILLAGE \nLB NAGAR OPP BHARAT PETROLEUM"
  },
  {
    "Merchant Name": "Reliance Digital",
    "City": "HYDERABAD",
    "Pincode": "500048",
    "address": "PLOT NO 254 & 255 ASY NO 369 A ATTAPURA VILLAGE \nRAJENDRA NAGAR MUNICIPALITY"
  },
  {
    "Merchant Name": "Reliance Digital",
    "City": "HYDERABAD",
    "Pincode": "500062",
    "address": "NO 1 7 43 220 221236 237 BESIDESRADHIKA THEATRE \nA S RAO NAGAR ECIL POST"
  },
  {
    "Merchant Name": "Reliance Digital",
    "City": "HYDERABAD",
    "Pincode": "500014",
    "address": "PLOT NOS 567 10 11 &12 BLOCK G \nSR NO91 92 & 93 JEEDIMATTA VILLAGE"
  },
  {
    "Merchant Name": "Reliance Digital",
    "City": "HYDERABAD",
    "Pincode": "500039",
    "address": "8731 SREE HEMADURGAMALL 3 1 B SURVEYNO99 \nSHANTHI NAGAR UPPAL NEAR YASHODA TOTOYA SHOW ROOM"
  },
  {
    "Merchant Name": "Reliance Digital",
    "City": "HYDERABAD",
    "Pincode": "500003",
    "address": "AMSRI FAUSTD NO 9 1 165 166 166A OPP SIGMA HOSPITAL \nBESIDES BASERA HOTEL SANGEETH THEATRE LANE SECUNDARABAD"
  },
  {
    "Merchant Name": "Reliance Digital",
    "City": "HYDERABAD",
    "Pincode": "500081",
    "address": "4486 SHOP NO G 46GRD FLR INORBIT MALLSY\n NO 64 PART MADHAPUR HITECH CITY"
  },
  {
    "Merchant Name": "Reliance Digital",
    "City": "HYDERABAD",
    "Pincode": "500016",
    "address": "RDRL HOUSE NO 1 1039 TO 44 GUMIDELLICOMMERCIAL\n COMPLEX AIRPORT ROAD BEGUMPETH"
  },
  {
    "Merchant Name": "Reliance Digital",
    "City": "HYDERABAD",
    "Pincode": "500034",
    "address": "MUNICIPAL NO 8 2 29382 A 471 & 8 2 29382 A \n471 1 PLOT NO 471 RD NO 36 JUBILEE HILLS"
  },
  {
    "Merchant Name": "Reliance Digital",
    "City": "HYDERABAD",
    "Pincode": "500076",
    "address": "H NO 7 17 8 BLOCK 1PLOT NOS 1 TO 4PART & 5 PART \nSR NO 94 99 NACHARAM"
  },
  {
    "Merchant Name": "Reliance Digital",
    "City": "HYDERABAD",
    "Pincode": "500036",
    "address": "MARAM SATISH CENTRAL16 10 27 1051 TO 7 106 1 MUNCIPAL COLONY\n MAIN ROAD MALAKPET"
  },
  {
    "Merchant Name": "Reliance Digital",
    "City": "HYDERABAD",
    "Pincode": "500072",
    "address": "6 11 & 6 11 1 VIJAYSAI TOWER OPP BJPOFFICE \nVEVIK NAGAR KUKATPALLY"
  },
  {
    "Merchant Name": "Reliance Digital",
    "City": "HYDERABAD",
    "Pincode": "500044",
    "address": "MUNICIPAL NO 2 2 3ADIKMET SHIVAM \nROADVIDYANAGAR"
  },
  {
    "Merchant Name": "Reliance Digital",
    "City": "HYDERABAD",
    "Pincode": "500027",
    "address": "03 03 1942 VEERSAVARKAR ROAD \nKACHIGUDA"
  },
  {
    "Merchant Name": "Reliance Digital",
    "City": "HYDERABAD",
    "Pincode": "500009",
    "address": "SHOP NO 3 6 553 TO558 558 1OPP MINERVA HIMAYATNAGAR \nMAIN ROAD HIMAYATNAGAR"
  },
  {
    "Merchant Name": "Reliance Digital",
    "City": "HYDERABAD",
    "Pincode": "500032",
    "address": "RDRL MADINAGUDAHYDERABAD STORERELIANCEDIGITAL RETAIL LTD MADINAGUDA \nMAIN RD BESIDE HUNDAI SHOWROOM MADINAGUDA NH 9"
  },
  {
    "Merchant Name": "Reliance Digital",
    "City": "HYDERABAD",
    "Pincode": "500072",
    "address": "31 SURVEY NO 10431048 NSL CENTRUMNR BSNL EXCHANGE \nKPHB 1 & 2 PHASE KUKATPALLY"
  },
  {
    "Merchant Name": "Reliance Digital",
    "City": "HYDERABAD",
    "Pincode": "500034",
    "address": "NSL ICON PLOT 1 2 34 H NO 8 2 684 2 A\nOPP ICICI BANK ROAD NO 12 BANJARA HILL"
  },
  {
    "Merchant Name": "Reliance Digital Express",
    "City": "HYDERABAD",
    "Pincode": "500034",
    "address": "SHOP NO 1C GRD FLRASHOKA \nMETROPOLITANMALL BANJARA HILLS"
  },
  {
    "Merchant Name": "Reliance Digital Express",
    "City": "HYDERABAD",
    "Pincode": "500081",
    "address": "4486 SHOP NO G 46GRD FLR INORBIT MALLSY \nNO 64 PART MADHAPUR HITECH CITY"
  },
  {
    "Merchant Name": "Reliance Digital Express",
    "City": "HYDERABAD",
    "Pincode": "500068",
    "address": "8675 CSR COMPLEX BLKA GROUND FLOOR \nPLOTNOS 72141142143&144 MAIN ROAD NAGOLE"
  },
  {
    "Merchant Name": "Reliance Digital Express",
    "City": "HYDERABAD",
    "Pincode": "500081",
    "address": "8678D XPRESSMADHAPUR HYDERABADMUNICIPAL NO S 1 98 6 28 & 1 98 6 50\n PLOT NO S 28 & 50 IN SY NO 76 PART XENO FIVE SPACE ARUNODAYA CO OPERATIVE HOUSING SOCIETY MADHAPUR VILLAGE SERILINGAMPALLY MANDAL & MUNICIPALITY R R DIST"
  },
  {
    "Merchant Name": "Reliance Digital Express",
    "City": "HYDERABAD",
    "Pincode": "500013",
    "address": "8697 RELIANCE RETAILLIMITED SVSR EDIFACEDOOR NO 3 10 23 10 2 1 OPP CENTRAL\n DETECTIVE TRAINING SCHOOL RAMANTHAPUR MAIN ROAD"
  },
  {
    "Merchant Name": "Reliance Digital Express",
    "City": "HYDERABAD",
    "Pincode": "500056",
    "address": "8713 ROHIT CHAMBERSMUNICPAL NO 29 62 5MUNICPAL NO 29 62 5 F1 PLOT NO 65 A IN SY \nNO152 NEW VIDYANAGAR NEREDMET ROAD MALKAJGIRI CIRCLE & MANDAL MALKAJGIRI"
  },
  {
    "Merchant Name": "Reliance Digital Express",
    "City": "HYDERABAD",
    "Pincode": "570012",
    "address": "8738 URBAN OASISMYSORE 1ST FLOOR22 B \nMYSORE VINOBHA ROAD JAYALAKSHMIPURAM"
  },
  {
    "Merchant Name": "Reliance Digital Mini",
    "City": "HYDERABAD",
    "Pincode": "500040",
    "address": "7530 OPP RAMA TEAPOINT H NO 3 5 2463 ROAD NO 5 KRISHNA NAGAR \nHB COLONY MOULA ALI"
  },
  {
    "Merchant Name": "Reliance Digital Mini",
    "City": "HYDERABAD",
    "Pincode": "500018",
    "address": "7532 SHAMBAVICOMPLEX PLOT NO 29A & B H NO 1 1 104 1 S2\nhyderabad"
  },
  {
    "Merchant Name": "Reliance Digital Mini",
    "City": "HYDERABAD",
    "Pincode": "500010",
    "address": "8475 DX MIN ROYALRESIDENCE ALWALHYDERABAD  ROYAL RESIDENCE G   5 G 6 G 7 PLOT NO 19 20 33AND34  JAWAHAR CO OPERTIVE SOCIETY\n ALWAL MUNICPALITY"
  },
  {
    "Merchant Name": "Reliance Digital",
    "City": "INDORE",
    "Pincode": "452010",
    "address": "TREASURE ISLAND\n3RD FLR MG ROAD"
  },
  {
    "Merchant Name": "Reliance Digital",
    "City": "JABALPUR",
    "Pincode": "482008",
    "address": "ANCHOR STORE FIRSTFLOOR 36 4 SOUTHAVENUE MALL ADJOINING \nPERFECT POTTERY NARMADA ROAD JABALPUR"
  },
  {
    "Merchant Name": "Reliance Digital Express",
    "City": "JAIPUR",
    "Pincode": "302017",
    "address": "8722 GF & FF GAURAVTOWERS\n MALVIYA NGR"
  },
  {
    "Merchant Name": "Reliance Digital",
    "City": "JALLANDHAR",
    "Pincode": "144001",
    "address": "8719 RDRL LGF BIG CMALL \nPLOT NO 255LAJPAT NAGAR"
  },
  {
    "Merchant Name": "Reliance Digital Express",
    "City": "JALLANDHAR",
    "Pincode": "144005",
    "address": "8735 SHOP NO21 FIRSTFLOOR VIVA COLLAGEMALLNEAR \nHAVELI RESTUARENTGT ROADVILLAGE PRAGPUR"
  },
  {
    "Merchant Name": "Reliance Digital",
    "City": "JAMNAGAR",
    "Pincode": "361006",
    "address": "8669 RDRL CRYSTALMALL SECOND FLOORUNIT \nNOS 201 202 203 & 204 KHAMBHALLA MAIN ROAD OPP KHODIYAR MANDIR"
  },
  {
    "Merchant Name": "Reliance Digital",
    "City": "JODHPUR",
    "Pincode": "342001",
    "address": "8989 IST FLOOR CITYCENTRE MALL NEARSANGHI \nPETROL PUMP OPPOSITE OLYMPIC CINEMA NEAR BIG BAZAR"
  },
  {
    "Merchant Name": "Reliance Digital",
    "City": "KANNUR",
    "Pincode": "670001",
    "address": "2ND FLOOR KANNURMALL \n221 S N PARK RD"
  },
  {
    "Merchant Name": "Reliance Digital",
    "City": "KANPUR",
    "Pincode": "208001",
    "address": "SHOP NO 35 36 37 3839A \nPROPERTY NO 16113 2ND FLR Z SQUARE MALL"
  },
  {
    "Merchant Name": "Reliance Digital Mini",
    "City": "KANPUR",
    "Pincode": "208012",
    "address": "7675 111 447 80 FEETRD \nASHOK NAGAR"
  },
  {
    "Merchant Name": "Reliance Digital Mini",
    "City": "KANPUR",
    "Pincode": "208006",
    "address": "7704 80 2 BLOCK 8VIP ROAD \nNANDLALCHAURAHA GOVINDNAGAR"
  },
  {
    "Merchant Name": "Reliance Digital Mini",
    "City": "KANPUR",
    "Pincode": "208006",
    "address": "7716  GF 125 8 80 2BLOCK 2 VIP ROAD\nNANDLAL CHAURAHA GOVIND NAGER"
  },
  {
    "Merchant Name": "Reliance Digital Mini",
    "City": "KANPUR",
    "Pincode": "208006",
    "address": "7745  GF 177 N 65\n AAVON MARKET  KAKADEV"
  },
  {
    "Merchant Name": "Reliance Digital Mini",
    "City": "KANPUR",
    "Pincode": "208002",
    "address": "7777  SHOP NO  45 &46 NAGAR NIGAM \nMARKTZOO ROAD  VIKAS NAGAR"
  },
  {
    "Merchant Name": "Reliance Digital Mini",
    "City": "KANPUR",
    "Pincode": "208007",
    "address": "7778  46 I  \nRAJEEVNAGAR  LAL BANGLA"
  },
  {
    "Merchant Name": "Reliance Digital Mini",
    "City": "KANPUR",
    "Pincode": "208027",
    "address": "7780  277  A 2 1HEMANT VIHARNEAR \nSACHAN GUESY HOUSE BARRA 1"
  },
  {
    "Merchant Name": "Reliance Digital",
    "City": "KHAMMAM",
    "Pincode": "507001",
    "address": "8679 RR COMPLEX VYRAROAD MUNICIPAL NO 51 662 NEW 5 1 205 OLD SY\n NOS 213 & 214 KHANAPURAM HAVELI GRAM PANCHAYAT KHAMMAM URBAN MANDAL &"
  },
  {
    "Merchant Name": "Reliance Digital",
    "City": "KHURDA",
    "Pincode": "751023",
    "address": "8666 RDRL Z ESTATEPATIA BHUBANESWARPLOT NOS 437 1893 KHATA \nNOS 489 239 MOUJA PATIA ON BHUBANESWAR NANDAN KANAN ROAD"
  },
  {
    "Merchant Name": "Reliance Digital",
    "City": "KOLHAPUR",
    "Pincode": "416001",
    "address": "2ND FLR TCC RELIANCEMEGA MALL\n SUBHASH RDLAXMIPURI"
  },
  {
    "Merchant Name": "Reliance Digital",
    "City": "KOLKATTA",
    "Pincode": "700055",
    "address": "DIAMOND CITY NORTH\nSHOP NO 1 2ND FLRJESSOR RD NAGERBAZAR"
  },
  {
    "Merchant Name": "Reliance Digital",
    "City": "KOLKATTA",
    "Pincode": "700120",
    "address": "8699 46 41 1 GHOSHPARA ROAD PO BARRACKPORE PS TITAGARH \nBESIDE HIMALAYA OPTICALS & MP JEWELLERS NEAR BARRACKPORE RLY STN"
  },
  {
    "Merchant Name": "Reliance Digital",
    "City": "KOLKATTA",
    "Pincode": "700029",
    "address": "8734 LAKE MALL3RD FLOOR\n104RASHBIHARI AVENUE"
  },
  {
    "Merchant Name": "Reliance Digital",
    "City": "KOLKATTA",
    "Pincode": "700063",
    "address": "46 DIAMOND HARBOURRD \nTHAKURPUKURBEHALA"
  },
  {
    "Merchant Name": "Reliance Digital",
    "City": "KOLKATTA",
    "Pincode": "700047",
    "address": "229 Vishnu EnclaveNetaji \nSubhas ChandrP S Jadavpur"
  },
  {
    "Merchant Name": "Reliance Digital",
    "City": "KOLKATTA",
    "Pincode": "700052",
    "address": "SATYAM TOWER V I PROAD \nOPP HALDIRAMNR B P PODDAR INSTITUTE KAIKHALI"
  },
  {
    "Merchant Name": "Reliance Digital",
    "City": "KOLKATTA",
    "Pincode": "700156",
    "address": "AXIS MALL SEC 02BLOCK B PLOT NO CF09\nACTION AREA IC NEW TOWN"
  },
  {
    "Merchant Name": "Reliance Digital Express",
    "City": "KOLKATTA",
    "Pincode": "700001",
    "address": "8700D XPRESS GF & MF14 \nNETAJI SUBHASH RD"
  },
  {
    "Merchant Name": "Reliance Digital Express",
    "City": "KOLKATTA",
    "Pincode": "700054",
    "address": "8704MANI SQUARE MALL164 1 \nMANICKTALAMAIN ROAD OFF EM BYPASS"
  },
  {
    "Merchant Name": "Reliance Digital Express",
    "City": "KOLKATTA",
    "Pincode": "700016",
    "address": "8709 UNIT NO13 & 8PARK \nMANSION 57APARK STREET"
  },
  {
    "Merchant Name": "Reliance Digital Express",
    "City": "KOLKATTA",
    "Pincode": "700019",
    "address": "8710 MILLENIUM CITYDN \n62 SEC 5 SALTLAKE"
  },
  {
    "Merchant Name": "Reliance Digital Mini",
    "City": "KOLKATTA",
    "Pincode": "700064",
    "address": "7508 CF 326 NEARSWIMMING \nPOOLSALT LAKE  BIDHAN NAGAR NEXT TO CCD"
  },
  {
    "Merchant Name": "Reliance Digital Mini",
    "City": "KOLKATTA",
    "Pincode": "700020",
    "address": "7511 2BSHAMBHU NATH \nPANDITSTREET  ELGIN ROAD"
  },
  {
    "Merchant Name": "Reliance Digital Mini",
    "City": "KOLKATTA",
    "Pincode": "700074",
    "address": "7513 319 7JESSORE ROAD\nNAGERBAZAR"
  },
  {
    "Merchant Name": "Reliance Digital Mini",
    "City": "KOLKATTA",
    "Pincode": "700029",
    "address": "7523 RELIANCE DIGITLMINI DX140 D  \nSARATBOSE ROAD"
  },
  {
    "Merchant Name": "Reliance Digital Mini",
    "City": "KOLKATTA",
    "Pincode": "700032",
    "address": "7526 DX3 85  CHITTARANJAN COLONY  \nRAJASC MALLIK ROAD"
  },
  {
    "Merchant Name": "Reliance Digital Mini",
    "City": "KOLKATTA",
    "Pincode": "700051",
    "address": "7528 334 1  \nMB ROADBIRATI"
  },
  {
    "Merchant Name": "Reliance Digital Mini",
    "City": "KOLKATTA",
    "Pincode": "700014",
    "address": "7551 174 \nGLINTON STREET"
  },
  {
    "Merchant Name": "Reliance Digital Mini",
    "City": "KOLKATTA",
    "Pincode": "700074",
    "address": "7567 RELIANCEDIGITAL MINI DX87 2DUM DUM ROAD BETWEEN PLANET M SPICE HOT SPOT & CAFE COFFEE DAY BESIDE TMS AND OPP \nNOKIA PRIORITY"
  },
  {
    "Merchant Name": "Reliance Digital Mini",
    "City": "KOLKATTA",
    "Pincode": "700040",
    "address": "7590 RELIANCE DIGITLMINI DX93  \nNSC BOSEROAD"
  },
  {
    "Merchant Name": "Reliance Digital Mini",
    "City": "KOLKATTA",
    "Pincode": "700124",
    "address": "7591 RELIANCE DIGITLMINI DXLILA MANSIONHOLDING NO 61 H 18 & 19  \nKNC ROAD  BARASAT"
  },
  {
    "Merchant Name": "Reliance Digital",
    "City": "KOTA",
    "Pincode": "324005",
    "address": "CITI MALL \n A 47 IPIARD NO 03"
  },
  {
    "Merchant Name": "Reliance Digital",
    "City": "LUCKNOW",
    "Pincode": "226001",
    "address": "24 HALWASIA COURTHAJRATGANJ \nMG MARG"
  },
  {
    "Merchant Name": "Reliance Digital",
    "City": "LUCKNOW",
    "Pincode": "226010",
    "address": "8983 RRL CDIT CITYMALL LUCKNOW \nCP2CITY MALL VIPUL KHAND 4 GOMTI NAGAR"
  },
  {
    "Merchant Name": "Reliance Digital",
    "City": "LUCKNOW",
    "Pincode": "226005",
    "address": "SHOP NO S 10 PLOTNO CP 08 PHOENIXUNITED MALL SECTOR B \nKANPUR ROAD CITY EXPANSION SCHEME"
  },
  {
    "Merchant Name": "Reliance Digital",
    "City": "LUCKNOW",
    "Pincode": "226010",
    "address": "PN TC 54 & 55AVIBHUTI \nKHAND"
  },
  {
    "Merchant Name": "Reliance Digital Mini",
    "City": "LUCKNOW",
    "Pincode": "226016",
    "address": "7648 SHOP NO 1 UGFSEHER PLAZA OPPMASZID ARVINDO PARK ROAD SEC 12 \nINDRA NAGAR MUNSHI PULLIA"
  },
  {
    "Merchant Name": "Reliance Digital Mini",
    "City": "LUCKNOW",
    "Pincode": "226018",
    "address": "7663  LGF KRISHNAPLAZA 133 24\nNAZIRABAD"
  },
  {
    "Merchant Name": "Reliance Digital Express",
    "City": "LUDHIANA",
    "Pincode": "141001",
    "address": "SHOP NO 15 16LOWER GRD \nFLOORWEST END MALL EROZPUR ROAD"
  },
  {
    "Merchant Name": "Reliance Digital",
    "City": "MADURAI",
    "Pincode": "625002",
    "address": "VISHAAL DE MALLANCHOR SHOP 3RD FLRDOOR \nNO 31 GOKALE RD CHOKKIKULAM VILLAGE MADURAI NORTH TALUK"
  },
  {
    "Merchant Name": "Reliance Digital",
    "City": "MADURAI",
    "Pincode": "625001",
    "address": "8728 D NO 192 EASTVELI STREET MADURAITOWN \nOLD TOWN SURVEY WARD NO 9"
  },
  {
    "Merchant Name": "Reliance Digital",
    "City": "MANGALORE",
    "Pincode": "575001",
    "address": "4599 SF16 27A2ND FLR CITY CENTREMALL \nK S RAO ROAD HAMPANKATTA"
  },
  {
    "Merchant Name": "Reliance Digital",
    "City": "MEERUT",
    "Pincode": "250002",
    "address": "8668 PLOT NO S 8 & 9\nCOLLEGE RD NRCHILDREN PARK"
  },
  {
    "Merchant Name": "Reliance Digital",
    "City": "MEERUT",
    "Pincode": "250103",
    "address": "8984ANCHOR NO 2 & 3LGF SHOPPRIX MALLCOMMERCIAL BULK LANDMAJOR\n DHYAN CHAND NAGAR SPORTS GOODS COMPLEX CROSSING OFMEERUT HAPUR BYPASS & MEERUT DELHI HWY"
  },
  {
    "Merchant Name": "Reliance Digital",
    "City": "MUMBAI",
    "Pincode": "400086",
    "address": "F 52 R CITY MALL \nLBSMARG GHATKOPAR W"
  },
  {
    "Merchant Name": "Reliance Digital",
    "City": "MUMBAI",
    "Pincode": "400080",
    "address": "RDRL R MALL MULUNDSTORE G \n16 GRD FLRR MALL MULUND LBS MARG MULUND W"
  },
  {
    "Merchant Name": "Reliance Digital",
    "City": "MUMBAI",
    "Pincode": "400064",
    "address": "UNIT NO 203 2ND FLRMALAD\n INFINITI MALLLINK RD MALAD"
  },
  {
    "Merchant Name": "Reliance Digital",
    "City": "MUMBAI",
    "Pincode": "400101",
    "address": "RDRL SHOP NO 13 1517 & 19 ON 1ST FLRAND 17 19 ON \n2ND FLRGROWELL 101 AKURLI ROAD KANDIVALI EAST"
  },
  {
    "Merchant Name": "Reliance Digital",
    "City": "Mumbai",
    "Pincode": "401303",
    "address": "FF GULMOHAR PLAZAVIVA \nCOLLEGE ROADVIRAR WEST"
  },
  {
    "Merchant Name": "Reliance Digital",
    "City": "MUMBAI",
    "Pincode": "400059",
    "address": "A 1 & 2 TIMES SQUAREANDHERI\n EAST ANDHERIKURLA RD"
  },
  {
    "Merchant Name": "Reliance Digital",
    "City": "MUMBAI",
    "Pincode": "400070",
    "address": "RDRL PHOENIX MARKETMUMBAI STOREG 495051 \nPHOENIX MARKET CITY  LBS ROAD  KURLA"
  },
  {
    "Merchant Name": "Reliance Digital Express",
    "City": "MUMBAI",
    "Pincode": "400025",
    "address": "SEA BREEZE PLOT NO1091 TOWN \nPLANNINGSCHEME IV NEW PRABHADEVI ROAD"
  },
  {
    "Merchant Name": "Reliance Digital Express",
    "City": "MUMBAI",
    "Pincode": "400050",
    "address": "MAIN STREET MALLBETWEEN ELCO \nMARKETAND GLOBUS HILL ROAD BANDRA WEST"
  },
  {
    "Merchant Name": "Reliance Digital Express",
    "City": "MUMBAI",
    "Pincode": "400078",
    "address": "DIGITAL XPRESSSECOND FLOOR UNITNO \nT 217 NEPTUNE MAGNET MALL LBS MARG BHANDUP"
  },
  {
    "Merchant Name": "Reliance Digital Express",
    "City": "MUMBAI",
    "Pincode": "400026",
    "address": "SHOP NO 5 GRD FLRTIRUPATI \nSHOPPING4 755 WARDEN RD"
  },
  {
    "Merchant Name": "Reliance Digital Express",
    "City": "MUMBAI",
    "Pincode": "400077",
    "address": "SHOP NO G 37 GRD FLRR CITY CENTRE MALLL\n B S MARG GHATKOPAR W"
  },
  {
    "Merchant Name": "Reliance Digital Express",
    "City": "MUMBAI",
    "Pincode": "400013",
    "address": "SHOP NO S 12 BSECOND FLOOR HIGHSTREET \nPHONIX LOWER PAREL SENAPATI BAPAT MARG"
  },
  {
    "Merchant Name": "Reliance Digital Express",
    "City": "MUMBAI",
    "Pincode": "400610",
    "address": "8667 SF 6 & 7 VIVACITY MALL NR CADBURYCOMPD NEXT TO \nJUPITER HOSPITAL THANE WEST OFF EASTERN HIGHWAY"
  },
  {
    "Merchant Name": "Reliance Digital Express",
    "City": "MUMBAI",
    "Pincode": "400067",
    "address": "8702 1ST FLOOR SHOPNO 4 MILAP \nTHEATRESV ROAD KANDIVALI W"
  },
  {
    "Merchant Name": "Reliance Digital Mini",
    "City": "MUMBAI",
    "Pincode": "400014",
    "address": "ANAND PRINTING PRESSSHOP NO 2  PLOT NO190 C  SATNAM MANSION  DR BABASAHEB AMBEDKAR ROAD  NEXT TO CHITRA CINEMA\n  DADAR EAST"
  },
  {
    "Merchant Name": "Reliance Digital Mini",
    "City": "MUMBAI",
    "Pincode": "400706",
    "address": "7520 SHOP NO 52SHREEJI HEIGHTSPLOT NO 1 1A 1B AND 1C SECTOR 46A\n SEAWOOD"
  },
  {
    "Merchant Name": "Reliance Digital Mini",
    "City": "MUMBAI",
    "Pincode": "400101",
    "address": "7524 SHOP NO 19NATIONAL AVENUE BLDGAKURLI ROAD OPP \nSAIBABA HOSPITAL KANDIVALI EAST"
  },
  {
    "Merchant Name": "Reliance Digital Mini",
    "City": "MUMBAI",
    "Pincode": "400086",
    "address": "7552 SHOP NO 2 3BHAWESHWAR PLAZALBS ROAD \nGHATKOPAR WEST"
  },
  {
    "Merchant Name": "Reliance Digital Mini",
    "City": "MUMBAI",
    "Pincode": "400010",
    "address": "7570 SHOP NO 7SAIFEE \nPARKMASCAREHANS ROAD MAZGAON"
  },
  {
    "Merchant Name": "Reliance Digital Mini",
    "City": "MUMBAI",
    "Pincode": "400097",
    "address": "7573 SHOP NO 9 UNITYHEIGHTS \nSV ROADMALAD W"
  },
  {
    "Merchant Name": "Reliance Digital Mini",
    "City": "MUMBAI",
    "Pincode": "400101",
    "address": "8466 SHOP NO2 3 AND11 BUILDING NO A 1SARAF \nCHAUDHARY NAGAR  THAKUR COMPLEX KANDIVALI E"
  },
  {
    "Merchant Name": "Reliance Digital Mini",
    "City": "MUMBAI",
    "Pincode": "400071",
    "address": "8470 SHOP NO 6SHIV PARVATI CHSSION \nTROMBAY ROAD  CHEMBUR"
  },
  {
    "Merchant Name": "Reliance Digital Mini",
    "City": "MUMBAI",
    "Pincode": "400056",
    "address": "8471 SHOP NO 1A 31B 4 \nAVON ARCADEDJ ROAD  VILE PARLE W"
  },
  {
    "Merchant Name": "Reliance Digital Mini",
    "City": "MUMBAI",
    "Pincode": "400080",
    "address": "8472 SHOP NO 5PRANAV COMMERCIALPLAZA \nM G RD MULUND WEST"
  },
  {
    "Merchant Name": "Reliance Digital Mini",
    "City": "MUMBAI",
    "Pincode": "400016",
    "address": "8746  SHREEJI VILLASHOP NO 7 \nT HKATARIA MARG MATUNGA WEST"
  },
  {
    "Merchant Name": "Reliance Digital Mini",
    "City": "MUMBAI",
    "Pincode": "400016",
    "address": "8749 SHOP NO 3 ALOOPAROO BUILDING \nLJ RDNEAR AXIS BANK  MAHIM WEST"
  },
  {
    "Merchant Name": "Reliance Digital Mini",
    "City": "MUMBAI",
    "Pincode": "400067",
    "address": "8752 SHREEJI ARCADES V ROAD\n NR  JAINTEMPLEÂ  KANDIVALI WEST"
  },
  {
    "Merchant Name": "Reliance Digital Mini",
    "City": "MUMBAI",
    "Pincode": "400080",
    "address": "8760 K R CHAUKSEYCONSULTANTS 13  AKAILASH PLAZA VALLABH BAG LANE NEAR OUDIAN SHOPPING CENTRE\n GHATKOPAR"
  },
  {
    "Merchant Name": "Reliance Digital Mini",
    "City": "MUMBAI",
    "Pincode": "400066",
    "address": "8761 SHOP NO5 GOYALPLAZA TPSII KASTURBAROAD NO 4\nNEAR ICICI BANK BORIVALI EAST"
  },
  {
    "Merchant Name": "Reliance Digital Mini",
    "City": "MUMBAI",
    "Pincode": "400102",
    "address": "8788 SHOP NO 4GRACE \nPLAZAS V ROAD  JOGESHWARI W"
  },
  {
    "Merchant Name": "Reliance Digital Mini",
    "City": "MUMBAI",
    "Pincode": "400013",
    "address": "8797 SHOP NO 22TRUE VISIONSHIVAJI NAGAR  DELISLE ROAD \nN M JOSHI MARG  LOWER PAREL"
  },
  {
    "Merchant Name": "Reliance Digital",
    "City": "MYSORE",
    "Pincode": "570001",
    "address": "8692 RELIANCE HYPERMART  KSRTC \nBUSTSTAND BANGLORE NEELGIRI ROAD"
  },
  {
    "Merchant Name": "Reliance Digital",
    "City": "MYSORE",
    "Pincode": "570010",
    "address": "MALL OF MYSORE FF 8NAZARBAD MOHALLAM G ROAD INDIRANAGAR EXTN OPP GOLF ROAD\nINDIRANAGAR EXTN OPP GOLF ROAD"
  },
  {
    "Merchant Name": "Reliance Digital",
    "City": "NAGPUR",
    "Pincode": "440018",
    "address": "1ST FLR EMPRESS CITIMALL SIR BENZONJIMEHTA\n ROAD NEAR SHUKRAWARI TALW"
  },
  {
    "Merchant Name": "Reliance Digital",
    "City": "NASIK",
    "Pincode": "422001",
    "address": "8748 RL MALL PLOT NO90 SR NO 612 5B 1AND 612 5B \n2 OLD MUMBAI AGRA ROAD NEAR KALIKA MANDIR"
  },
  {
    "Merchant Name": "Reliance Digital",
    "City": "NASIK",
    "Pincode": "422022",
    "address": "LSF 02 LOWER GRD FLRCITY CENTER MALLLAWATE NAGAR \nUNTWADI NEW NASIK"
  },
  {
    "Merchant Name": "Reliance Digital Express",
    "City": "NASIK",
    "Pincode": "422101",
    "address": "8718 D XPRESS STARZONE SHOP \nNOS U6M6 & M7 NASHIK"
  },
  {
    "Merchant Name": "Reliance Digital",
    "City": "NAVI MUMBAI",
    "Pincode": "400705",
    "address": "MAITHILI SIGNETPLOT NO 39 4 \nSEC 30A"
  },
  {
    "Merchant Name": "Reliance Digital",
    "City": "NAVI MUMBAI",
    "Pincode": "400701",
    "address": "8918RCP Complex, Bldg no. 6, Wing C, Ground Floor, \nThane-Belapur Road, Ghansoli, navi Mumbai-400701"
  },
  {
    "Merchant Name": "Reliance Digital Express",
    "City": "NAVI MUMBAI",
    "Pincode": "400701",
    "address": "RDX STORE 8D GRD FLRRELIANCE \nCORPORATEPARK THANE BELAPUR RD GHANSOLI"
  },
  {
    "Merchant Name": "Reliance Digital Mini",
    "City": "NAVI MUMBAI",
    "Pincode": "400701",
    "address": "8737 GF TC23 RELIANCCORPORATE \nPARKTHANEBELAPUR ROAD GHANSOLI"
  },
  {
    "Merchant Name": "Reliance Digital Mini",
    "City": "NAVI MUMBAI",
    "Pincode": "400706",
    "address": "8791 AC AND LCD F1 4SECTOR 15\nNEAR STATION NERUL E"
  },
  {
    "Merchant Name": "Reliance Digital Mini",
    "City": "NAVI MUMBAI",
    "Pincode": "400709",
    "address": "8990 SHOP NO 3DCB ATM  SHUBHAMPALACE VASHI ROAD  OPP VODAFONE GALLERY NEARB\nY D MART KOPERKAIRANE"
  },
  {
    "Merchant Name": "Reliance Digital",
    "City": "NEW DELHI",
    "Pincode": "110058",
    "address": "GRD FLR B 1 629JANAKPURI \nNAJAFGARHRD"
  },
  {
    "Merchant Name": "Reliance Digital",
    "City": "NEW DELHI",
    "Pincode": "110043",
    "address": "8676 RDRL GF & FFPLOT NO RZ 14 5\nLAXMI GARDEN NAJAFGARH"
  },
  {
    "Merchant Name": "Reliance Digital",
    "City": "NEW DELHI",
    "Pincode": "110092",
    "address": "1ST FLOOR FUN CITYMALL \nPLOT NO 29AND 31 CBD SHAHADRA"
  },
  {
    "Merchant Name": "Reliance Digital",
    "City": "NEW DELHI",
    "Pincode": "110070",
    "address": "SHOP NO 231232233AMBIENCE MALL\n2ND FLR VASANT KUNJ"
  },
  {
    "Merchant Name": "Reliance Digital",
    "City": "NEW DELHI",
    "Pincode": "110075",
    "address": "WYANDHAM HOTELGR FLR PLOT NO 3\nOPP DWARKA METRO STATION SEC 10"
  },
  {
    "Merchant Name": "Reliance Digital Express",
    "City": "NEW DELHI",
    "Pincode": "110092",
    "address": "DIGITAL XPRESS F 11PLOT NO 12V3S\n EAST CENTRE LAXMI NAGAR DT CENTRE"
  },
  {
    "Merchant Name": "Reliance Digital Express",
    "City": "NEW DELHI",
    "Pincode": "110048",
    "address": "SHOP NO M 34 GRD \nFLRGK 1 MAIN MARKET"
  },
  {
    "Merchant Name": "Reliance Digital Express",
    "City": "NEW DELHI",
    "Pincode": "110052",
    "address": "8665 DIGITAL XPRESSASHOK VIHAR DELHI \nGFB 2 14 PHASE 2 ASHOK VIHAR"
  },
  {
    "Merchant Name": "Reliance Digital Express",
    "City": "NEW DELHI",
    "Pincode": "110085",
    "address": "8712GF SHOP G12 G14G15A FUN CITY \nMALLPRASHANT VIHAR SECTOR 14 ROHINI"
  },
  {
    "Merchant Name": "Reliance Digital Express",
    "City": "NEW DELHI",
    "Pincode": "110048",
    "address": "PLOT NO 17 18 19COMMUNITY CENTRELALA \nLAJPAT RAI MARGKAILASH COLONY"
  },
  {
    "Merchant Name": "Reliance Digital Express",
    "City": "NEW DELHI",
    "Pincode": "110085",
    "address": "8965 FF & SF ATJAKSONS CROWNHEIGHTS\n SECTOR 10 PLOT 3B1 ROHINI"
  },
  {
    "Merchant Name": "Reliance Digital Mini",
    "City": "NEW DELHI",
    "Pincode": "110008",
    "address": "7500 SHOP NO 1 15 1WEST PATEL NAGAR\nPATEL NAGAR"
  },
  {
    "Merchant Name": "Reliance Digital Mini",
    "City": "NEW DELHI",
    "Pincode": "110022",
    "address": "7527 SHOP NO 13 \nSEC8 RK PURAM"
  },
  {
    "Merchant Name": "Reliance Digital Mini",
    "City": "NEW DELHI",
    "Pincode": "110037",
    "address": "7535 GF L 1B MAHIPALPUR \nOPP MTNL TELEPHONE EXCHANGE"
  },
  {
    "Merchant Name": "Reliance Digital Mini",
    "City": "NEW DELHI",
    "Pincode": "110009",
    "address": "7536 59 GF \nMALL ROADGTB NAGAR"
  },
  {
    "Merchant Name": "Reliance Digital Mini",
    "City": "NEW DELHI",
    "Pincode": "110045",
    "address": "7542 RZ 506 C \nRAJNAGAR PALAM COLONY"
  },
  {
    "Merchant Name": "Reliance Digital Mini",
    "City": "NEW DELHI",
    "Pincode": "110007",
    "address": "7547 7683 SABZIMANDI \nCLOCK TOWER"
  },
  {
    "Merchant Name": "Reliance Digital Mini",
    "City": "NEW DELHI",
    "Pincode": "110033",
    "address": "7554 B 38 SHANKRACHARYA ROAD SSRANA MARG \nADARSH NAGAR"
  },
  {
    "Merchant Name": "Reliance Digital Mini",
    "City": "NEW DELHI",
    "Pincode": "110095",
    "address": "7556 G 18 SHOP NO 2\nDILSHAD COLONY"
  },
  {
    "Merchant Name": "Reliance Digital Mini",
    "City": "NEW DELHI",
    "Pincode": "110015",
    "address": "7559 6 2 MOTI NAGARMAIN MKT \nMOTI NAGAR"
  },
  {
    "Merchant Name": "Reliance Digital Mini",
    "City": "NEW DELHI",
    "Pincode": "110032",
    "address": "7562 9283WEST ROHTASNGR MAIN\nBABARPUR RD"
  },
  {
    "Merchant Name": "Reliance Digital Mini",
    "City": "NEW DELHI",
    "Pincode": "110031",
    "address": "8458 6 14 \nAGEETA COLONY"
  },
  {
    "Merchant Name": "Reliance Digital Mini",
    "City": "NEW DELHI",
    "Pincode": "100085",
    "address": "8460 G 4 AND G 27AGGARWAL CITY PLAZAPLOT NUMBER  17 \nMANGALAM PLACE SEC 3 ROHINI 3"
  },
  {
    "Merchant Name": "Reliance Digital Mini",
    "City": "NEW DELHI",
    "Pincode": "110019",
    "address": "8461 B 89 A 1\nGR FLR KALKA JEE"
  },
  {
    "Merchant Name": "Reliance Digital Mini",
    "City": "NEW DELHI",
    "Pincode": "110096",
    "address": "8463 B 1 153 \nMAIN RDNEW KONDLI"
  },
  {
    "Merchant Name": "Reliance Digital Mini",
    "City": "NEW DELHI",
    "Pincode": "110032",
    "address": "8753 6 58 STREET NO3 \nVISHWAS NAGAR"
  },
  {
    "Merchant Name": "Reliance Digital Mini",
    "City": "NEW DELHI",
    "Pincode": "110027",
    "address": "8790C 1 137\nJANAKPURI"
  },
  {
    "Merchant Name": "Reliance Digital Mini",
    "City": "NEW DELHI",
    "Pincode": "110021",
    "address": "8794 123 124GR \nFLR SATYA NIKETAN"
  },
  {
    "Merchant Name": "Reliance Digital Mini",
    "City": "NEW DELHI",
    "Pincode": "110053",
    "address": "8795 C6 239 \nYAMUNAVIHAR"
  },
  {
    "Merchant Name": "Reliance Digital Mini",
    "City": "NEW DELHI",
    "Pincode": "110014",
    "address": "8796 61 3 CENTRAL RDBHOGAL \nJANGPURA"
  },
  {
    "Merchant Name": "Reliance Digital Mini",
    "City": "NEW DELHI",
    "Pincode": "110051",
    "address": "8992F 3 29 \nKRISHNANAGAR"
  },
  {
    "Merchant Name": "Reliance Digital Mini",
    "City": "NEW DELHI",
    "Pincode": "110092",
    "address": "8993 WA 84 \nSHAKARPUR"
  },
  {
    "Merchant Name": "Reliance Digital Mini",
    "City": "NEW DELHI",
    "Pincode": "110019",
    "address": "8994 K1 81  \nC R PARK"
  },
  {
    "Merchant Name": "Reliance Digital Mini",
    "City": "NEW DELHI",
    "Pincode": "110059",
    "address": "8995F 37 GROUND FOORMIL\nAP NAGAR UTTAMNAGAR"
  },
  {
    "Merchant Name": "Reliance Digital Mini",
    "City": "NEW DELHI",
    "Pincode": "110092",
    "address": "8996 SHOP NUMBER 1\nPANDAV NAGAR"
  },
  {
    "Merchant Name": "Reliance Digital Mini",
    "City": "NEW DELHI",
    "Pincode": "110015",
    "address": "8997 G 11 B 2 \nSHIVAMHOUSE COMMERCIALCOMPLEX KARAMPURA"
  },
  {
    "Merchant Name": "Reliance Digital",
    "City": "NOIDA",
    "Pincode": "201301",
    "address": "PLOT NO A 2 3RD FLRGREAT INDIA PLACESECTOR 38 A \nADJACENT TO AMUSEMENT PARK"
  },
  {
    "Merchant Name": "Reliance Digital Express",
    "City": "NOIDA",
    "Pincode": "201306",
    "address": "8677 SHOP NOS G43G46A \nPLOT NOS 1ANSAL PLAZA GREATER"
  },
  {
    "Merchant Name": "Reliance Digital Express",
    "City": "NOIDA",
    "Pincode": "201307",
    "address": "8696 D X PRESS SEC63GF OF PROPERTY\n NO 25BLOCK H 1A SEC 63"
  },
  {
    "Merchant Name": "Reliance Digital",
    "City": "PATNA",
    "Pincode": "800014",
    "address": "8671 PLOT NO968 998969 971 970 THANA NO11  \nMADHURI CHANDRA COMPLEX  KHAJPURA BAILEY ROAD"
  },
  {
    "Merchant Name": "Reliance Digital",
    "City": "PUNE",
    "Pincode": "411037",
    "address": "MANHAR HOUSE \nNEARSAIBABA MANDIR PUNESATARA RD"
  },
  {
    "Merchant Name": "Reliance Digital",
    "City": "PUNE",
    "Pincode": "411057",
    "address": "20 6 2 3 SPARSHPLAZA HINJEWADI MAINROAD \nOPP HP PETROL PUMP NEXT TO MARRIOT COURTYARD HINJEWADI"
  },
  {
    "Merchant Name": "Reliance Digital",
    "City": "PUNE",
    "Pincode": "411004",
    "address": "R DECCAN MALL FF ANDSF MALL \nDECCANGYMKHANA JM RD DECCAN"
  },
  {
    "Merchant Name": "Reliance Digital",
    "City": "PUNE",
    "Pincode": "411042",
    "address": "KUMAR PACIFIC MALLS 1 AND S 2\n 2ND FLRSHANKAR SETH RD"
  },
  {
    "Merchant Name": "Reliance Digital",
    "City": "PUNE",
    "Pincode": "410201",
    "address": "8721 SURVEY NO 8HISSA NO 2B 2CKHARADI \nHAVELI ALMONTE VILLAGE"
  },
  {
    "Merchant Name": "Reliance Digital",
    "City": "PUNE",
    "Pincode": "411040",
    "address": "RDRL KPCT PUNE STORESHOP C & D \nNO 26 2728 WING B GRD AND 1ST FLR KPCT FATIMA NAGAR"
  },
  {
    "Merchant Name": "Reliance Digital",
    "City": "PUNE",
    "Pincode": "411014",
    "address": "AHMEDANAGAR ROADSTORE FF 33 34 35\nPHOENIX MARKET CITY NAGAR ROAD VIMAN NAGAR"
  },
  {
    "Merchant Name": "Reliance Digital",
    "City": "PUNE",
    "Pincode": "411028",
    "address": "AMANORA TOWN CENTREMALL VILLAGE SADESATARA \nNAIL 17 HADAPSAR TALUKA HAVELI"
  },
  {
    "Merchant Name": "Reliance Digital",
    "City": "PUNE",
    "Pincode": "411007",
    "address": "PLOT NO 1 2 SURVEYNO 131 1 2 SOLITAIREMALL ITI ROAD \nSANEWADI OPP RELIANCE FOOT PRINT"
  },
  {
    "Merchant Name": "Reliance Digital Express",
    "City": "PUNE",
    "Pincode": "411005",
    "address": "SHOP NO G 3 UPPERGROUND \nFLOORMILLLENIUM PLAZA FC ROAD"
  },
  {
    "Merchant Name": "Reliance Digital Express",
    "City": "PUNE",
    "Pincode": "411001",
    "address": "8698LGF SHOP NO 231CAMP \nMOLEDINA ROAD"
  },
  {
    "Merchant Name": "Reliance Digital Mini",
    "City": "PUNE",
    "Pincode": "411038",
    "address": "7504  DX MINIGEETAI SANKULPAUD RD PUNE 129 GEETAI SANKUL \nPAUD ROAD IDEAL COLONY"
  },
  {
    "Merchant Name": "Reliance Digital Mini",
    "City": "PUNE",
    "Pincode": "411043",
    "address": "7512  SHOP NO 3NITYANAND HOUSINGSOCIETY  \nBALAJI NAGAR  NEAR SIDDHARTH ELECTRONICS"
  },
  {
    "Merchant Name": "Reliance Digital Mini",
    "City": "PUNE",
    "Pincode": "411029",
    "address": "7519 PLOT NO 14S NO 88 4\nGUJRATH COLONY KOTHRUD"
  },
  {
    "Merchant Name": "Reliance Digital Mini",
    "City": "PUNE",
    "Pincode": "411014",
    "address": "7521 SHOP NO 3MENKUDLE HEIGHTS 469 SAGAR PARK VADGAON SHERI\n CHANDAN NAGAR"
  },
  {
    "Merchant Name": "Reliance Digital Mini",
    "City": "PUNE",
    "Pincode": "411040",
    "address": "7550 RBS ATM SHOP NO34 GROUND \nFLOORSACRED HEART TOWN WANWADI"
  },
  {
    "Merchant Name": "Reliance Digital Mini",
    "City": "PUNE",
    "Pincode": "411040",
    "address": "7561 SHOP NO 1SAIKRUPA APARTMENT\nBHANDARKAR ROAD"
  },
  {
    "Merchant Name": "Reliance Digital Mini",
    "City": "PUNE",
    "Pincode": "411028",
    "address": "7589 SHOP NO 12SHANTI \nNIKETANMAGARPATTA ROAD"
  },
  {
    "Merchant Name": "Reliance Digital Mini",
    "City": "PUNE",
    "Pincode": "411037",
    "address": "7593 SHOP NO 8 & 9KUNDAN VIHAR PLOT NO12 CTS NO 3224\nBIBEWADI"
  },
  {
    "Merchant Name": "Reliance Digital Mini",
    "City": "PUNE",
    "Pincode": "411030",
    "address": "7598 SHOP NO3 EIFFELSQUARE \nTILAK ROAD"
  },
  {
    "Merchant Name": "Reliance Digital Mini",
    "City": "PUNE",
    "Pincode": "411033",
    "address": "7599 SHOP NO 1DARSHAN NAGARI SOCSOCIETY \nLINK ROAD CHINCHWAD"
  },
  {
    "Merchant Name": "Reliance Digital Mini",
    "City": "PUNE",
    "Pincode": "411048",
    "address": "7601 SHOP NO 3PARMAR PAWAN \nKONDHWAROAD KONDHWA"
  },
  {
    "Merchant Name": "Reliance Digital",
    "City": "RAIPUR",
    "Pincode": "492001",
    "address": "8682 RDRL CHHATTISGARH CITY CENTER \nOPPPF OFFICE PANDRI MARKET"
  },
  {
    "Merchant Name": "Reliance Digital Express",
    "City": "RAIPUR",
    "Pincode": "492001",
    "address": "8681 ANCHOR STOREUNIT NO 2 \nMAGNETOMALL LABHANDI GE ROAD NH 6"
  },
  {
    "Merchant Name": "Reliance Digital",
    "City": "Rajahmundry",
    "Pincode": "533102",
    "address": "8962 RDRL STATION RDRAJAHMUNDRY MULTIFUNCTIONAL COMPLEX RAJAHMUNDRY EAST\n RAJAHMUNDRY STATION ALCOT GARDENS OPP SAI BABA TEMPLE BESIDES RAILWAY PARCEL OFFICE"
  },
  {
    "Merchant Name": "Reliance Digital",
    "City": "SANGLI",
    "Pincode": "416416",
    "address": "SFC MEGA MALL B LGFAND \nUGF CITY POSTMG RD"
  },
  {
    "Merchant Name": "Reliance Digital Mini",
    "City": "SECUNDERABAD",
    "Pincode": "500026",
    "address": "8474 DX MINIWEST MAREDPALLYSECUNDRABAD  MUNICIPAL NO 3 6 202AND 205 \nBOOSAREDDYGUDA  WEST MAREDPALLY"
  },
  {
    "Merchant Name": "Reliance Digital",
    "City": "SHILLONG",
    "Pincode": "793001",
    "address": "8975 MARBANIANGPROPERTY ADJACENTTO MUDA \nMULTI LEVEL PARKING LOT POLICE POINT POLICE BAZAAR"
  },
  {
    "Merchant Name": "Reliance Digital",
    "City": "THANE",
    "Pincode": "421306",
    "address": "ANCHOR SHOP B OPPNEW APMC \nMARKETKALYAN SHEEL RD KALYAN W"
  },
  {
    "Merchant Name": "Reliance Digital",
    "City": "THANE",
    "Pincode": "421003",
    "address": "MAHARAJA HALL KALYANAMBERNATH \nRDELECTRONICS MARKET ULHASNAGAR"
  },
  {
    "Merchant Name": "Reliance Digital",
    "City": "THANE",
    "Pincode": "400604",
    "address": "GHODBUNDER ROAD \nNRCINE WONDER MALL"
  },
  {
    "Merchant Name": "Reliance Digital",
    "City": "THANE",
    "Pincode": "400604",
    "address": "KORUM MALL 4545 GRDFLR MANGAL \nPANDEMARG"
  },
  {
    "Merchant Name": "Reliance Digital Express",
    "City": "THANE",
    "Pincode": "401101",
    "address": "4TH FLR MAXUS MALLSHREE \nVALLABHACHARAYAJI MARG BHAYANDER WEST"
  },
  {
    "Merchant Name": "Reliance Digital Express",
    "City": "THANE",
    "Pincode": "400601",
    "address": "ISTORE BY RELIANCEDIGITAL MU SM GMU1374543 \nSHOP NO G 2 GRD FLR KORUM MALL NEAR CADBURY COMPOUND OFF EASTERN EXPRESS HIGHWAY THANE W"
  },
  {
    "Merchant Name": "Reliance Digital Mini",
    "City": "THANE",
    "Pincode": "400603",
    "address": "TODAYS PHOTOS  SHOPNO 10  GROUND FLOORRANE \nBHAVAN KOPARI STATION ROAD THANE EAST"
  },
  {
    "Merchant Name": "Reliance Digital",
    "City": "TIRUPATI",
    "Pincode": "517501",
    "address": "8690 ABHI TOWERS NRTIRUMALA \nRESIDENCYRENIGUNTA ROAD"
  },
  {
    "Merchant Name": "Reliance Digital",
    "City": "TIRUPUR",
    "Pincode": "641604",
    "address": "8980 41 VELANESPLANADE \nKANGAYAMRD"
  },
  {
    "Merchant Name": "Reliance Digital",
    "City": "TRICHUR",
    "Pincode": "680004",
    "address": "GRAND MALL MG RDWEST \nFORT POOTHOLE"
  },
  {
    "Merchant Name": "Reliance Digital Mini",
    "City": "TRICHUR",
    "Pincode": "680307",
    "address": "7763 XXV 297NEAR\nK K BAKERYSOUTHJUNCTIONCHALAKUDY"
  },
  {
    "Merchant Name": "Reliance Digital Mini",
    "City": "TRICHUR",
    "Pincode": "680121",
    "address": "7764 E P BUILDINGNO VI 302MAIN ROAD\nTANA TO BUS STAND ROADIRINJALAKUDA"
  },
  {
    "Merchant Name": "Reliance Digital Mini",
    "City": "TRIVANDRUM",
    "Pincode": "695009",
    "address": "7707 NARAYANANILAYAM BLDG NOTC 40 1523 2 MANACAUD JUNCTIONMANACAUD \n P O TRIVANDRUM"
  },
  {
    "Merchant Name": "Reliance Digital Mini",
    "City": "TRIVANDRUM",
    "Pincode": "695004",
    "address": "7708 MUDUMBIL TOWERSBLDG NO TC 11 1971 2\nPLAMOOD JUNCTIONPATTOM P O"
  },
  {
    "Merchant Name": "Reliance Digital",
    "City": "TUMKUR",
    "Pincode": "572101",
    "address": "8729PID NO 17 2 2 13SITUATED \nAT K R EXTNB H ROAD"
  },
  {
    "Merchant Name": "Reliance Digital",
    "City": "UDAIPUR",
    "Pincode": "313004",
    "address": "8701FF & SF UNIT NO1 13 & 2 13CELEBRATION MALL \nNH 8 OPP DEVENDRA DHAM BHUWANA"
  },
  {
    "Merchant Name": "Reliance Digital",
    "City": "UJJAIN",
    "Pincode": "456010",
    "address": "TREASURE BAZAARLG 02 01C DHANVANTRICHIKITSA KENDRA YOGYNA NANAKHEDA\nKENDRA YOGYNA NANAKHEDA"
  },
  {
    "Merchant Name": "Reliance Digital Express",
    "City": "VADODARA",
    "Pincode": "390001",
    "address": "8645 HOP NO 12 GRDFLOOR \nCENTRE SQUAREMALL SARABHAI CIRCLE"
  },
  {
    "Merchant Name": "Reliance Digital Express",
    "City": "VADODARA",
    "Pincode": "390016",
    "address": "8743 UNIT NO  DEPARTDEPARTMENT STOREANCHOR 2 ON FIRST FLOOR INORBIT MALL VADODARA ALEMBIC SURVEY\n NO  100 GURWA ROAD OPP ALEMBIC SCHOOL NEXT TO GUNJAN TOWER PETROL PUMP"
  },
  {
    "Merchant Name": "Reliance Digital",
    "City": "VIJAYAWADA",
    "Pincode": "520010",
    "address": "DOOR NO 40 1 146 ALEPL CENTRO MALL \nOPP MURALI FORTUNE HOTEL M G ROAD LABBIPET"
  },
  {
    "Merchant Name": "Reliance Digital",
    "City": "VIJAYAWADA",
    "Pincode": "520010",
    "address": "DOOR NO 73 1 10 1 &13 OPP DURGAMAHALM \nG ROAD PATAMATA"
  },
  {
    "Merchant Name": "Reliance Digital",
    "City": "VISHAKAPATNAM",
    "Pincode": "530013",
    "address": "RELIANCE DIGITAL RETAIL LTD CMP CENTRALVIZAG 4404 1ST FLR CMR CENTRAL \nD NO 52 1 35 36 38 NEW RESAPUVANI PALEM MADDILAPALEM"
  },
  {
    "Merchant Name": "Reliance Digital",
    "City": "WARANGAL",
    "Pincode": "506002",
    "address": "8674 GF SHOP NOS 1118 47 52 FF SHOP \nNOS11 18 JAKOTIA COMPLEX POCHAMMAIDAN  MG ROAD"
  }
]
