BRANDS SOLD,PRODUCT TYPES/ CATEGORIES,RETAILER TYPE,RETAILER_ID,RETAILER NAME,LOCATION NAME,ADDRESS,LAND MARK,CITY,DISTRICT,STATE/PROVINCE,ZIP/POSTAL CODE,COUNTRY,CONTACT PHONE,STORE SIZE,GEO COORDINATES,TIER LEVEL OF GOODS SOLD,URL,NUMBER OF STORES/BRANCHIES IN THE CHAIN,HQ ADDRESS,HOLDING COMPANY NAME,HOLDING COMPANY ADDRESS,HOLDINGS CONTACT,URL (HOLDING COMAPANY),MANUFACTURER / FACTORY,MANUFACTURER ADDRESS,MANUFACTURER CONTACT
,TV,Consumer Electronics,,GREAT EASTERN,," Diamond Park, D.No- 47-7-17 Dwaraka Nagar, Visakhapatnam Pin 530016 Andhra Pradesh",,ANDHRA PRADESH,DIAMOND PARK,,530016,,,,,,http://www.greateastern.co.in/ap-store.html,,,,,,,,,
,TV,Consumer Electronics,,GREAT EASTERN,, D.N. 11-57 & 11-58 Opp. Simhachalam Railway Station Visakhapatnam Pin 530026 Andhra Pradesh, Opp. Simhachalam Railway Station,ANDHRA PRADESH,GOPALAPATNAM,,530026,,,,,,http://www.greateastern.co.in/ap-store.html,,,,,,,,,
,TV,Consumer Electronics,,GREAT EASTERN,," D.No.-10-1-126, Main Road Old Gajuwaka, Visakhapatnam Pin 530026 Andhra Pradesh",,ANDHRA PRADESH,GAJUWAKA,,530026,,,,,,http://www.greateastern.co.in/ap-store.html,,,,,,,,,
,TV,Consumer Electronics,,GREAT EASTERN,," Hanuman Saudha, 59A-4-6 Postal Colony, Gurunanak Road Vijayawada Pincode: 520008",,ANDHRA PRADESH,GURUNANAK ROAD,,520008,,,,,,http://www.greateastern.co.in/ap-store.html,,,,,,,,,
,TV,Consumer Electronics,,GREAT EASTERN,," Quantam Square Building 59A-15-A1&2, Bhadraiah Nagar, Patamata Vijaywada - 500010",,ANDHRA PRADESH,QUANTAM SQUARE,,500010,,,,,,http://www.greateastern.co.in/ap-store.html,,,,,,,,,
,TV,Consumer Electronics,,GREAT EASTERN,," 4-15-60/12 Bharatpet 6th Lane Amaravathi Road, Guntur – 522007 Andhra Pradesh",,ANDHRA PRADESH,GUNTUR,,522007,,,,,,http://www.greateastern.co.in/ap-store.html,,,,,,,,,
,TV,Consumer Electronics,,GREAT EASTERN,," Orchid Pathak, C-212, Kurshi Road Vikas Nagar, Sector N, Aliganj Lucknow, Pin- 226024",,UTTAR PRADESH,VIKAS NAGAR,,226024,,,,,,http://www.greateastern.co.in/up-store.html,,,,,,,,,
,TV,Consumer Electronics,,GREAT EASTERN,," A-22, Indra Nagar Lucknow, Pin 226016",,UTTAR PRADESH,INDRA NAGAR,,226016,,,,,,http://www.greateastern.co.in/up-store.html,,,,,,,,,
,TV,Consumer Electronics,,GREAT EASTERN,," Royal Delite Plaza, Ramnagar Alambagh, Lucknow Pin 226005",,UTTAR PRADESH,ALAMBAGH,,226005,,,,,,http://www.greateastern.co.in/up-store.html,,,,,,,,,
,TV,Consumer Electronics,,GREAT EASTERN,, 13/13 Telia Bagh Varanasi - 221002,,UTTAR PRADESH,VARANASI,,221002,,,,,,http://www.greateastern.co.in/up-store.html,,,,,,,,,
,TV,Consumer Electronics,,GREAT EASTERN,," Plot No-2, Paliwal Park Near : Sanghi Farm, Tonk Road Jaipur- 302018","Near : Sanghi Farm, Tonk Road",RAJASTHAN,TONK ROAD,,302018,,,,,,http://www.greateastern.co.in/rajasthan-store.html,,,,,,,,,
,TV,Consumer Electronics,,GREAT EASTERN,," Plot No-8, Moti Nagar , Queens Road Jaipur- 302021",,RAJASTHAN,VAISHALI NAGAR,,302021,,,,,,http://www.greateastern.co.in/rajasthan-store.html,,,,,,,,,
,TV,Consumer Electronics,,GREAT EASTERN,," Pilani Bhawan, M I Road Jaipur- 302001",,RAJASTHAN,M.I. ROAD,,302001,,,,,,http://www.greateastern.co.in/rajasthan-store.html,,,,,,,,,
,TV,Consumer Electronics,,GREAT EASTERN,," ""Plot No. 28, Sindhi Colony Near Ghoda Wala Circle, Rawatbhata Main Road, Kota- 324006","Near Ghoda Wala Circle, Rawatbhata Main Road, Kota- 324006",RAJASTHAN,KOTA,,324006,,,,,,http://www.greateastern.co.in/rajasthan-store.html,,,,,,,,,
,TV,Consumer Electronics,,GREAT EASTERN,," ""The Regent Hotel"" 172-B, Residency Road Opposite Goyal Hospital Jodhpur - 342003",Opposite Goyal Hospital,RAJASTHAN,JODHPUR,,342003,,,,,,http://www.greateastern.co.in/rajasthan-store.html,,,,,,,,,
,TV,Consumer Electronics,,GREAT EASTERN,," ""Plot No. 1 A,Ratan Nagar Dher Ka Balaji, Sikar Road Jaipur- 302039",,RAJASTHAN,SIKAR ROAD,,302039,,,,,,http://www.greateastern.co.in/rajasthan-store.html,,,,,,,,,
,TV,Consumer Electronics,,GREAT EASTERN,," Plot - 22 & 22b ,Bapuji Nagar Janapath Bhubaneswar,  Odisha-751009",,ODISHA,"BAPUJI NAGAR, BHUBANESWAR",,751009,,,,,,http://www.greateastern.co.in/odishl-store.html,,,,,,,,,
,TV,Consumer Electronics,,GREAT EASTERN,," Plot - 45, Badambadi, Odisha Cuttack - 753012",,ODISHA,CUTTACK,,753012,,,,,,http://www.greateastern.co.in/odishl-store.html,,,,,,,,,
,TV,Consumer Electronics,,GREAT EASTERN,," Plot No.B/1373, Sector-6, C.D.A, Cuttack-753014",,ODISHA,CDA-CUTTACK,,753014,,,,,,http://www.greateastern.co.in/odishl-store.html,,,,,,,,,
,TV,Consumer Electronics,,GREAT EASTERN,," Plot No.516/1696,Patia, (Opp.To Big Bazaar) Bhubaneswar- 751024"," Plot No.516/1696,Patia, (Opp.To Big Bazaar)",ODISHA,"PATIA, BHUBANESWAR",,751024,,,,,,http://www.greateastern.co.in/odishl-store.html,,,,,,,,,
,TV,Consumer Electronics,,GREAT EASTERN,," Plot No.312 & 312/2016, Badabazar Brahmapur-760001",,ODISHA,BRAHMAPUR,,760001,,,,,,http://www.greateastern.co.in/odishl-store.html,,,,,,,,,
,TV,Consumer Electronics,,GREAT EASTERN,, Plot No.186/1584 Vivekanandya Marg Balsore- 756001,,ODISHA,BALASORE,,756001,,,,,,http://www.greateastern.co.in/odishl-store.html,,,,,,,,,
,TV,Consumer Electronics,,GREAT EASTERN,," Bisra Road, Rourkela, Sundergarh Odisha- 769001",,ODISHA,ROURKELA,,769001,,,,,,http://www.greateastern.co.in/odishl-store.html,,,,,,,,,
,TV,Consumer Electronics,,GREAT EASTERN,," Kamla Bhawan, Chorda Bypass, Jajpur Road Odisha- 755019",,ODISHA,JAJPUR,,755019,,,,,,http://www.greateastern.co.in/odishl-store.html,,,,,,,,,
,TV,Consumer Electronics,,GREAT EASTERN,," Block A-2, D.H.Road, Amtala, Sangam Super Martket, Dist-24 Pgs, (S) Pin - 743398 Opposite Amtala Baazar Kolkata",Opposite Amtala Baazar Kolkata,WEST BENGAL,AMTALA,,743398,,,,,,http://www.greateastern.co.in/westbengal-store.html,,,,,,,,,
,TV,Consumer Electronics,,GREAT EASTERN,," Block- A, Parbati Business Arcade G.T.Road, Ashram More, Asansol Pin - 713301 Near Ashram More",Near Ashram More,WEST BENGAL,ASANSOL,,713301,,,,,,http://www.greateastern.co.in/westbengal-store.html,,,,,,,,,
,TV,Consumer Electronics,,GREAT EASTERN,," 102, Diamond Harbour Road, Behala Kolkata - 700034 Opposite M Bazar",Opposite M Bazar,WEST BENGAL,BEHALA,,700034,,,,,,http://www.greateastern.co.in/westbengal-store.html,,,,,,,,,
,TV,Consumer Electronics,,GREAT EASTERN,," 66, Syed Amir Ali Avenue Kolkata - 700019 Near Ice Skating",Near Ice Skating,WEST BENGAL,BECKBAGAN,,700019,,,,,,http://www.greateastern.co.in/westbengal-store.html,,,,,,,,,
,TV,Consumer Electronics,,GREAT EASTERN,," 30, Jessore Road, Barasat Kolkata- 700127 Opposite Rathtala Play Ground",Opposite Rathtala Play Ground,WEST BENGAL,BARASAT,,700127,,,,,,http://www.greateastern.co.in/westbengal-store.html,,,,,,,,,
,TV,Consumer Electronics,,GREAT EASTERN,," Nh-6, Bagnan Point, Opp-Amta More Vill-Khadinan, Bagnan Howrah-711303"," Nh-6, Bagnan Point, Opp-Amta More",WEST BENGAL,BAGNAN,,711303,,,,,,http://www.greateastern.co.in/westbengal-store.html,,,,,,,,,
,TV,Consumer Electronics,,GREAT EASTERN,," 18/2 , M.G. Road, P.O. & P.S. - Budge Budge District - 24 Para(S) Kolkata - 700137 Near Telephone Exchange",Near Telephone Exchange,WEST BENGAL,BUDGE BUDGE,,700137,,,,,,http://www.greateastern.co.in/westbengal-store.html,,,,,,,,,
,TV,Consumer Electronics,,GREAT EASTERN,," 306, G.T.Road, East End Burdwan- 713101",,WEST BENGAL,BURDWAN,,713101,,,,,,http://www.greateastern.co.in/westbengal-store.html,,,,,,,,,
,TV,Consumer Electronics,,GREAT EASTERN,, 602/15 Bagbazar(Station Road) Chandannagar Hooghly- 712136,,WEST BENGAL,CHANDANNAGAR-OLD,,712136,,,,,,http://www.greateastern.co.in/westbengal-store.html,,,,,,,,,
,TV,Consumer Electronics,,GREAT EASTERN,," Municipal Holding No. – 1452 (Old – 1333), Barabazar G.T. Road (W), Chandannagar Hooghly– 712136 Beside Surya Modak Sweet Shop",,WEST BENGAL,CHANDANNAGAR-NEW,,712136,,,,,,http://www.greateastern.co.in/westbengal-store.html,,,,,,,,,
,TV,Consumer Electronics,,GREAT EASTERN,," Dh-1>> 20, Old Court House Street Kolkata- 700001 Opposite Lalit Great Eastern Hotel",Opposite Lalit Great Eastern Hotel,WEST BENGAL,DALHOUSIE,,700001,,,,,,http://www.greateastern.co.in/westbengal-store.html,,,,,,,,,
,TV,Consumer Electronics,,GREAT EASTERN,," 19/2, Gariahat(South),Dhakuria Kolkata- 700031 Opposite Dakshinapan Shopping Complex",Opposite Dakshinapan Shopping Complex,WEST BENGAL,DHAKURIA,,700031,,,,,,http://www.greateastern.co.in/westbengal-store.html,,,,,,,,,
,TV,Consumer Electronics,,GREAT EASTERN,," 17,Manujendra Dutta Road,Gorabazar, Dumdum, Kolkata- 700028 Near Gorabazar Hanuman Mandir",Near Gorabazar Hanuman Mandir,WEST BENGAL,DUMDUM,,700028,,,,,,http://www.greateastern.co.in/westbengal-store.html,,,,,,,,,
,TV,Consumer Electronics,,GREAT EASTERN,," 3058, Basudevpur, Po-Khanjanchak, Haldia Midnapore(E)-721602 Near Contai Co-Operative Bank",Near Contai Co-Operative Bank,WEST BENGAL,HALDIA,,721602,,,,,,http://www.greateastern.co.in/westbengal-store.html,,,,,,,,,
,TV,Consumer Electronics,,GREAT EASTERN,," 290, G.T.Road Howrah- 711102 Near KaziPara More",Near KaziPara More,WEST BENGAL,HOWRAH,,711102,,,,,,http://www.greateastern.co.in/westbengal-store.html,,,,,,,,,
,TV,Consumer Electronics,,GREAT EASTERN,," P - 273, Manicktala Main Road Kolkata- 700054 Near Rail Bridge",Near Rail Bridge,WEST BENGAL,KAKURGACHI,,700054,,,,,,http://www.greateastern.co.in/westbengal-store.html,,,,,,,,,
,TV,Consumer Electronics,,GREAT EASTERN,," 27/1, B.T.Road,Kamarhati Kolkata- 700058",,WEST BENGAL,KAMARHATI,,700058,,,,,,http://www.greateastern.co.in/westbengal-store.html,,,,,,,,,
,TV,Consumer Electronics,,GREAT EASTERN,," 352/824,Miabazar,Kiranitola Midnapore (West)- 721101 Gopinath Dham, Kiranitola, Judge Court Road",,WEST BENGAL,MIDNAPORE,,721101,,,,,,http://www.greateastern.co.in/westbengal-store.html,,,,,,,,,
,TV,Consumer Electronics,,GREAT EASTERN,," Municipal Holding No. 584, Sodepur Road East (Formerly Of 244/2, West Bankim Pally,) The Jurisdiction Of Madhyamgram Municipality Ward No. 23 (Formerly Ward No. 2, P.S - Barasat, Mouza – Chakraghata, North 24 Parganas - 700129 Near Madhyamgram Kalibari",Near Madhyamgram Kalibari,WEST BENGAL,MADHYAMGRAM,,700129,,,,,,http://www.greateastern.co.in/westbengal-store.html,,,,,,,,,
,TV,Consumer Electronics,,GREAT EASTERN,," Anand Plaza, S.N. Sarkar Road Purulia- 723101",,WEST BENGAL,PURULIA,,723101,,,,,,http://www.greateastern.co.in/westbengal-store.html,,,,,,,,,
,TV,Consumer Electronics,,GREAT EASTERN,," 229,Rajadanga,Nabapally Kolkata- 700107 Near Pabapally Bus Stop",Near Pabapally Bus Stop,WEST BENGAL,RAJDANGA,,700107,,,,,,http://www.greateastern.co.in/westbengal-store.html,,,,,,,,,
,TV,Consumer Electronics,,GREAT EASTERN,," 151,G.N.P.C.Road, Ranaghat Nadia-741201 Near Friends Club",Near Friends Club,WEST BENGAL,RANAGHAT,,741201,,,,,,http://www.greateastern.co.in/westbengal-store.html,,,,,,,,,
,TV,Consumer Electronics,,GREAT EASTERN,," 51, G.T. Road, Rishra Hooghly- 712248 Near Jewar Jewellary",Near Jewar Jewellary,WEST BENGAL,RISHRA,,712248,,,,,,http://www.greateastern.co.in/westbengal-store.html,,,,,,,,,
,TV,Consumer Electronics,,GREAT EASTERN,," At/Po- Jagacha,(Sundarpara Road) Howrah-711112 Near Santragachi Railway Station",Near Santragachi Railway Station,WEST BENGAL,SANTRAGACHI,,711112,,,,,,http://www.greateastern.co.in/westbengal-store.html,,,,,,,,,
,TV,Consumer Electronics,,GREAT EASTERN,," Ab-17, Sector- I, Saltlake City Kolkata- 700064 Near PNB More",Near PNB More,WEST BENGAL,SALT LAKE,,700064,,,,,,http://www.greateastern.co.in/westbengal-store.html,,,,,,,,,
,TV,Consumer Electronics,,GREAT EASTERN,," 404, Ho Chi Min Sarani Kolkata- 700061 Beside Shakuntala Park Petrol Pump",,WEST BENGAL,SHAKUNTALA PARK,,700061,,,,,,http://www.greateastern.co.in/westbengal-store.html,,,,,,,,,
,TV,Consumer Electronics,,GREAT EASTERN,," 168/47, Benimadhab School More Near Circuit House, Suri Birbhum- 731101 Near Circuit House",Near Circuit House,WEST BENGAL,SURI,,731101,,,,,,http://www.greateastern.co.in/westbengal-store.html,,,,,,,,,
,TV,Consumer Electronics,,GREAT EASTERN,," 15b, Sarat Bose Rod Kolkata- 700020 Near Minto Park",Near Minto Park,WEST BENGAL,TECHNOCITY,,700020,,,,,,http://www.greateastern.co.in/westbengal-store.html,,,,,,,,,
,TV,Consumer Electronics,,GREAT EASTERN,," 41c, Netaji Subhas Chandra Bose Road, Kolkata- 700040 Near Ashok Nagar Park",Near Ashok Nagar Park,WEST BENGAL,TOLLYGUNGE,,700040,,,,,,http://www.greateastern.co.in/westbengal-store.html,,,,,,,,,
,TV,Consumer Electronics,,GREAT EASTERN,," 171-A,Diamond Harbour Road, Thakurpukur Kolkatta -700104",,WEST BENGAL,THAKURPUKUR,,700104,,,,,,http://www.greateastern.co.in/westbengal-store.html,,,,,,,,,
,TV,Consumer Electronics,,GREAT EASTERN,," 2/17/1,G.T.Road (Kheya Ghat), Uttarpara- Hooghly- 712258 Beside More Super Market",,WEST BENGAL,UTTARPARA,,712258,,,,,,http://www.greateastern.co.in/westbengal-store.html,,,,,,,,,
,TV,Consumer Electronics,,GREAT EASTERN,," Sanghamitra Complex, 44, Kulpi Road Kachari Bazar, Baruipur, Kolkata -700144 N/L Baazar Kolkata",,WEST BENGAL,BARUIPUR,,700144,,,,,,http://www.greateastern.co.in/westbengal-store.html,,,,,,,,,
